{
"type": "FeatureCollection",
"crs": { "type": "name", "properties": { "name": "urn:ogc:def:crs:OGC:1.3:CRS84" } },
"features": [
{ "type": "Feature", "properties": { "stationID": "02t", "nameTH": "มหาวิทยาลัยราชภัฏบ้านสมเด็จเจ้าพระยา", "nameEN": "Bansomdejchaopraya Rajabhat University", "areaTH": "แขวงหิรัญรูจี เขตธนบุรี, กรุงเทพฯ", "areaEN": "Hiran Ruchi, Khet Thon Buri, Bangkok", "stationType": "GROUND", "lat": "13.732846", "long": "100.487662", "AQILast.PM25.aqi": "59", "AQILast.PM25.value": "27.1" }, "geometry": { "type": "Point", "coordinates": [ 100.487662, 13.732846 ] } },
{ "type": "Feature", "properties": { "stationID": "03t", "nameTH": "ริมถนนทางหลวงหมายเลข 3902 ", "nameEN": "Highway NO.3902 km.13 +600", "areaTH": "ริมถนนกาญจนาภิเษก เขตบางขุนเทียน, กรุงเทพฯ", "areaEN": "Kanchanaphisek Rd, Bang Khun Thian, Bangkok", "stationType": "GROUND", "lat": "13.636514", "long": "100.414262", "AQILast.PM25.aqi": "67", "AQILast.PM25.value": "29.1" }, "geometry": { "type": "Point", "coordinates": [ 100.414262, 13.636514 ] } },
{ "type": "Feature", "properties": { "stationID": "05t", "nameTH": "กรมอุตุนิยมวิทยาบางนา", "nameEN": "Thai Meteorological Department ", "areaTH": "แขวงบางนา เขตบางนา, กรุงเทพฯ", "areaEN": "Bang Na, Khet Bang Na, Bangkok", "stationType": "GROUND", "lat": "13.666183", "long": "100.605742", "AQILast.PM25.aqi": "48", "AQILast.PM25.value": "24.3" }, "geometry": { "type": "Point", "coordinates": [ 100.605742, 13.666183 ] } },
{ "type": "Feature", "properties": { "stationID": "11t", "nameTH": "การเคหะชุมชนห้วยขวาง ", "nameEN": "National Housing  Huaykwang", "areaTH": "แขวงดินแดง เขตดินแดง, กรุงเทพฯ", "areaEN": "Din Daeng, Khet Din Daeng, Bangkok", "stationType": "GROUND", "lat": "13.77553", "long": "100.569195", "AQILast.PM25.aqi": "44", "AQILast.PM25.value": "22.6" }, "geometry": { "type": "Point", "coordinates": [ 100.569195, 13.77553 ] } },
{ "type": "Feature", "properties": { "stationID": "12t", "nameTH": "โรงเรียนนนทรีวิทยา ", "nameEN": "Nonsi Witthaya School", "areaTH": "แขวงช่องนนทรี เขตยานนาวา, กรุงเทพฯ", "areaEN": "Chong Nonsi, Khet Yannawa, Bangkok", "stationType": "GROUND", "lat": "13.70806667", "long": "100.5473333", "AQILast.PM25.aqi": "45", "AQILast.PM25.value": "22.9" }, "geometry": { "type": "Point", "coordinates": [ 100.5473333, 13.70806667 ] } },
{ "type": "Feature", "properties": { "stationID": "50t", "nameTH": "โรงพยาบาลจุฬาลงกรณ์", "nameEN": "Chulalongkorn Hospital", "areaTH": "ริมถนนพระราม 4 เขตปทุมวัน, กรุงเทพฯ", "areaEN": "Rama IV Rd. Khet Pathum Wan, Bangkok", "stationType": "GROUND", "lat": "13.729852", "long": "100.536501", "AQILast.PM25.aqi": "59", "AQILast.PM25.value": "27.1" }, "geometry": { "type": "Point", "coordinates": [ 100.536501, 13.729852 ] } },
{ "type": "Feature", "properties": { "stationID": "52t", "nameTH": "การไฟฟ้าย่อยธนบุรี ", "nameEN": "Thonburi Power Sub-Station", "areaTH": "ริมถนนอินทรพิทักษ์ เขตธนบุรี, กรุงเทพฯ", "areaEN": "Intarapitak Rd. Khet Thon Buri, Bangkok", "stationType": "GROUND", "lat": "13.727622", "long": "100.486568", "AQILast.PM25.aqi": "50", "AQILast.PM25.value": "25.0" }, "geometry": { "type": "Point", "coordinates": [ 100.486568, 13.727622 ] } },
{ "type": "Feature", "properties": { "stationID": "53t", "nameTH": "สถานีตำรวจนครบาลโชคชัย ", "nameEN": "Chokchai Police Station", "areaTH": "ริมถนนลาดพร้าว เขตวังทองหลาง, กรุงเทพฯ", "areaEN": "Lat Phrao Rd. Khet Wang Thonglang, Bangkok", "stationType": "GROUND", "lat": "13.7954248", "long": "100.5930298", "AQILast.PM25.aqi": "43", "AQILast.PM25.value": "22.1" }, "geometry": { "type": "Point", "coordinates": [ 100.5930298, 13.7954248 ] } },
{ "type": "Feature", "properties": { "stationID": "54t", "nameTH": "การเคหะชุมชนดินแดง ", "nameEN": "National Housing Authority Dindaeng", "areaTH": "ริมถนนดินแดง เขตดินแดง, กรุงเทพฯ", "areaEN": "Din Daeng Rd. Khet Din Daeng, Bangkok", "stationType": "GROUND", "lat": "13.76251667", "long": "100.5502", "AQILast.PM25.aqi": "90", "AQILast.PM25.value": "34.9" }, "geometry": { "type": "Point", "coordinates": [ 100.5502, 13.76251667 ] } },
{ "type": "Feature", "properties": { "stationID": "59t", "nameTH": "กรมประชาสัมพันธ์", "nameEN": "The Government Public Relations Department ", "areaTH": "แขวงพญาไท เขตพญาไท, กรุงเทพฯ", "areaEN": "Phaya Thai, Khet Phaya Thai, Bangkok", "stationType": "GROUND", "lat": "13.783185", "long": "100.540489", "AQILast.PM25.aqi": "33", "AQILast.PM25.value": "17.8" }, "geometry": { "type": "Point", "coordinates": [ 100.540489, 13.783185 ] } },
{ "type": "Feature", "properties": { "stationID": "61t", "nameTH": "โรงเรียนบดินทรเดชา (สิงห์ สิงหเสนี) ", "nameEN": "Bodindecha Sing Singhaseni School", "areaTH": "แขวงพลับพลา เขตวังทองหลาง, กรุงเทพฯ", "areaEN": "Pubpla, Khet Wang Thonglang, Bangkok", "stationType": "GROUND", "lat": "13.769634", "long": "100.614567", "AQILast.PM25.aqi": "42", "AQILast.PM25.value": "21.9" }, "geometry": { "type": "Point", "coordinates": [ 100.614567, 13.769634 ] } },
{ "type": "Feature", "properties": { "stationID": "bkp100t", "nameTH": "สำนักงานเขตบึงกุ่ม", "nameEN": "Bueng Kum District Office, Bangkok", "areaTH": "แขวงคลองกุ่ม เขตบึงกุ่ม", "areaEN": "Khlong Kum, Bueng Kum, Bangkok", "stationType": "BKK", "lat": "13.785212", "long": "100.669183", "AQILast.PM25.aqi": "94", "AQILast.PM25.value": "36.0" }, "geometry": { "type": "Point", "coordinates": [ 100.669183, 13.785212 ] } },
{ "type": "Feature", "properties": { "stationID": "bkp101t", "nameTH": "สำนักงานเขตคลองสามวา", "nameEN": "Khlong Sam Wa District Office, Bangkok", "areaTH": "เขตคลองสามวา, กรุงเทพฯ", "areaEN": "Khlong Sam Wa, Bangkok", "stationType": "BKK", "lat": "13.859911", "long": "100.704002", "AQILast.PM25.aqi": "84", "AQILast.PM25.value": "33.5" }, "geometry": { "type": "Point", "coordinates": [ 100.704002, 13.859911 ] } },
{ "type": "Feature", "properties": { "stationID": "bkp102t", "nameTH": "สำนักงานเขตจอมทอง", "nameEN": "Chomthong District Office, Bangkok", "areaTH": "เขตจอมทอง, กรุงเทพฯ", "areaEN": "Chomthong, Bangkok", "stationType": "BKK", "lat": "13.677757", "long": "100.483861", "AQILast.PM25.aqi": "39", "AQILast.PM25.value": "20.5" }, "geometry": { "type": "Point", "coordinates": [ 100.483861, 13.677757 ] } },
{ "type": "Feature", "properties": { "stationID": "bkp103t", "nameTH": "สำนักงานเขตบางพลัด", "nameEN": "Bang Phlat District Office, Bangkok", "areaTH": "ริมถนนจรัญสนิทวงศ์ เขตบางพลัด, กรุงเทพฯ", "areaEN": "Charansanitwong Roadside, Bangkok", "stationType": "BKK", "lat": "13.793965", "long": "100.504956", "AQILast.PM25.aqi": "82", "AQILast.PM25.value": "32.9" }, "geometry": { "type": "Point", "coordinates": [ 100.504956, 13.793965 ] } },
{ "type": "Feature", "properties": { "stationID": "bkp104t", "nameTH": "สำนักงานเขตบางแค", "nameEN": "Bang Khae District Office, Bangkok", "areaTH": "เขตบางแค, กรุงเทพฯ", "areaEN": "Bang Khae, Bangkok", "stationType": "BKK", "lat": "13.696314", "long": "100.409049", "AQILast.PM25.aqi": "40", "AQILast.PM25.value": "20.7" }, "geometry": { "type": "Point", "coordinates": [ 100.409049, 13.696314 ] } },
{ "type": "Feature", "properties": { "stationID": "bkp105t", "nameTH": "สำนักงานเขตบางขุนเทียน", "nameEN": "Bang Khun Thian District Office, Bangkok", "areaTH": "ริมถนนพระราม 2 เขตบางขุนเทียน, กรุงเทพฯ", "areaEN": "RamaII Roadside,  Bang Khun Thian, Bangkok", "stationType": "BKK", "lat": "13.659908", "long": "100.435902", "AQILast.PM25.aqi": "66", "AQILast.PM25.value": "28.8" }, "geometry": { "type": "Point", "coordinates": [ 100.435902, 13.659908 ] } },
{ "type": "Feature", "properties": { "stationID": "bkp110t", "nameTH": "บริเวณถนนพิษณุโลก", "nameEN": "Phitsanulok Road", "areaTH": "ถนนพิษณุโลก เขตปทุมวัน", "areaEN": "Phitsanulok Road, Pathum Wan, Bangkok", "stationType": "BKK", "lat": "13.76121", "long": "100.517035", "AQILast.PM25.aqi": "-1", "AQILast.PM25.value": "-1" }, "geometry": { "type": "Point", "coordinates": [ 100.517035, 13.76121 ] } },
{ "type": "Feature", "properties": { "stationID": "bkp112t", "nameTH": "สำนักงานเขตบางคอแหลม (Mobile)", "nameEN": "Bang Kho Laem District Office, Bangkok (Mobile)", "areaTH": "เขตบางคอแหลม, กรุงเทพฯ", "areaEN": "Bang Kho Laem, Bangkok", "stationType": "BKK", "lat": "13.69304", "long": "100.50244", "AQILast.PM25.aqi": "40", "AQILast.PM25.value": "21.0" }, "geometry": { "type": "Point", "coordinates": [ 100.50244, 13.69304 ] } },
{ "type": "Feature", "properties": { "stationID": "bkp114t", "nameTH": "สวนลุมพินี ถนนพระราม 4 แขวงวังใหม่ เขตปทุมวัน", "nameEN": "Lumpini park", "areaTH": "สวนลุมพินี เขตปทุมวัน", "areaEN": "Lumpini park, Pathum Wan, Bangkok", "stationType": "BKK", "lat": "13.732225", "long": "100.5448381", "AQILast.PM25.aqi": "32", "AQILast.PM25.value": "17.7" }, "geometry": { "type": "Point", "coordinates": [ 100.5448381, 13.732225 ] } },
{ "type": "Feature", "properties": { "stationID": "bkp115t", "nameTH": "สวนวชิรเบญจทัศ ถนนกำแพงเพชร 3 แขวงลาดยาว เขตจตุจักร", "nameEN": "Wacchirabenchatat Park", "areaTH": "สวนวชิรเบญจทัศ เขตจตุจักร", "areaEN": "Wacchirabenchatat Park, Chatuchak, Bangkok", "stationType": "BKK", "lat": "13.8118516", "long": "100.5535825", "AQILast.PM25.aqi": "113", "AQILast.PM25.value": "42.0" }, "geometry": { "type": "Point", "coordinates": [ 100.5535825, 13.8118516 ] } },
{ "type": "Feature", "properties": { "stationID": "bkp116t", "nameTH": "สวนจตุจักร ถนนพหลโยธิน แขวงจตุจักร เขตจตุจักร", "nameEN": "Chatuchak Park", "areaTH": "สวนจตุจักร เขตจตุจักร", "areaEN": "Chatuchak Park, Chatuchak, Bangkok", "stationType": "BKK", "lat": "13.802546", "long": "100.5509191", "AQILast.PM25.aqi": "48", "AQILast.PM25.value": "24.3" }, "geometry": { "type": "Point", "coordinates": [ 100.5509191, 13.802546 ] } },
{ "type": "Feature", "properties": { "stationID": "bkp117t", "nameTH": "สวนหลวง ร.9 ถนนเฉลิมพระเกียรติ ร.9 แขวงหนองบอน เขตประเวศ", "nameEN": "Suan Luang Rama IX", "areaTH": "สวนหลวง ร.9 เขตประเวศ", "areaEN": "Suan Luang Rama IX, Pravet, Bangkok", "stationType": "BKK", "lat": "13.6881393", "long": "100.6579657", "AQILast.PM25.aqi": "39", "AQILast.PM25.value": "20.5" }, "geometry": { "type": "Point", "coordinates": [ 100.6579657, 13.6881393 ] } },
{ "type": "Feature", "properties": { "stationID": "bkp118t", "nameTH": "สวน 60 พรรษาสมเด็จพระนางเจ้าพระบรมราชินีนาถ ถนนเคหะร่มเกล้า เขตลาดกระบัง", "nameEN": "60th Anniversary of Queen Sirikit Park ,Kheha Romklao Road, Lat Krabang, Bangkok", "areaTH": "สวน 60 พรรษาสมเด็จพระนางเจ้าพระบรมราชินีนาถ เขตลาดกระบัง", "areaEN": "60th Anniversary of Queen Sirikit Park, Lat Krabang, Bangkok", "stationType": "BKK", "lat": "13.7631141", "long": "100.7302101", "AQILast.PM25.aqi": "61", "AQILast.PM25.value": "27.7" }, "geometry": { "type": "Point", "coordinates": [ 100.7302101, 13.7631141 ] } },
{ "type": "Feature", "properties": { "stationID": "bkp119t", "nameTH": "อุทยานเบญจสิริ", "nameEN": "Benchasiri Park", "areaTH": "อุทยานเบญจสิริ เขตคลองเตย", "areaEN": "Benchasiri Park, Klong Toei, Bangkok", "stationType": "BKK", "lat": "13.7304916", "long": "100.5684634", "AQILast.PM25.aqi": "45", "AQILast.PM25.value": "22.9" }, "geometry": { "type": "Point", "coordinates": [ 100.5684634, 13.7304916 ] } },
{ "type": "Feature", "properties": { "stationID": "bkp120t", "nameTH": "สวนรมณีย์ทุ่งสีกัน", "nameEN": "Rommani Thungsikan Park", "areaTH": "สวนรมณีย์ทุ่งสีกัน เขตดอนเมือง", "areaEN": "Rommani Thungsikan Park, Don Mueang, Bangkok", "stationType": "BKK", "lat": "13.9288678", "long": "100.5684666", "AQILast.PM25.aqi": "52", "AQILast.PM25.value": "25.4" }, "geometry": { "type": "Point", "coordinates": [ 100.5684666, 13.9288678 ] } },
{ "type": "Feature", "properties": { "stationID": "bkp121t", "nameTH": "สวนธนบุรีรมย์", "nameEN": "Thonburirom Park", "areaTH": "สวนธนบุรีรมย์ เขตทุ่งครุ", "areaEN": "Thonburirom Park, Thung Khru, Bangkok", "stationType": "BKK", "lat": "13.6502295", "long": "100.4909771", "AQILast.PM25.aqi": "38", "AQILast.PM25.value": "20.0" }, "geometry": { "type": "Point", "coordinates": [ 100.4909771, 13.6502295 ] } },
{ "type": "Feature", "properties": { "stationID": "bkp122t", "nameTH": "สวนเบญจกิติ", "nameEN": "Benjakitti Park", "areaTH": "สวนเบญจกิติ เขตคลองเตย", "areaEN": "Benjakitti Park, Khlong Toei, Bangkok", "stationType": "BKK", "lat": "13.7328791", "long": "100.5600172", "AQILast.PM25.aqi": "44", "AQILast.PM25.value": "22.5" }, "geometry": { "type": "Point", "coordinates": [ 100.5600172, 13.7328791 ] } },
{ "type": "Feature", "properties": { "stationID": "bkp123t", "nameTH": "สวนสมเด็จพระนางเจ้าสิริกิติ์ฯ", "nameEN": "Queen Sirikit Park", "areaTH": "สวนสมเด็จพระนางเจ้าสิริกิติ์ฯ เขตจตุจักร", "areaEN": "Queen Sirikit Park, Chatuchak, Bangkok", "stationType": "BKK", "lat": "13.8055472", "long": "100.5488338", "AQILast.PM25.aqi": "47", "AQILast.PM25.value": "23.8" }, "geometry": { "type": "Point", "coordinates": [ 100.5488338, 13.8055472 ] } },
{ "type": "Feature", "properties": { "stationID": "bkp124t", "nameTH": "สวนเฉลิมพระเกียรติ 80 พรรษา", "nameEN": "80th Anniversary Commemoration Park", "areaTH": "สวนเฉลิมพระเกียรติ 80 พรรษา เขตบางกอกน้อย", "areaEN": "80th Anniversary Commemoration Park, Bangkok Noi, Bangkok", "stationType": "BKK", "lat": "13.7716446", "long": "100.4681128", "AQILast.PM25.aqi": "52", "AQILast.PM25.value": "25.3" }, "geometry": { "type": "Point", "coordinates": [ 100.4681128, 13.7716446 ] } },
{ "type": "Feature", "properties": { "stationID": "bkp125t", "nameTH": "สวนเสรีไทย", "nameEN": "Serithai Park", "areaTH": "สวนเสรีไทย เขตบึงกุ่ม", "areaEN": "Serithai Park, Bueng Kum, Bangkok", "stationType": "BKK", "lat": "13.7855673", "long": "100.6733359", "AQILast.PM25.aqi": "73", "AQILast.PM25.value": "30.6" }, "geometry": { "type": "Point", "coordinates": [ 100.6733359, 13.7855673 ] } },
{ "type": "Feature", "properties": { "stationID": "bkp126t", "nameTH": "สวนบางแคภิรมย์", "nameEN": "Bang Khae Phirom Park", "areaTH": "สวนบางแคภิรมย์ เขตบางแค", "areaEN": "Bang Khae Phirom Park, Bang Khae, Bangkok", "stationType": "BKK", "lat": "13.6863478", "long": "100.3844036", "AQILast.PM25.aqi": "31", "AQILast.PM25.value": "17.0" }, "geometry": { "type": "Point", "coordinates": [ 100.3844036, 13.6863478 ] } },
{ "type": "Feature", "properties": { "stationID": "bkp127t", "nameTH": "สวนทวีวนารมย์", "nameEN": "Thawee Wanarom Park", "areaTH": "สวนทวีวนารมย์ เขตทวีวัฒนา", "areaEN": "Thawee Wanarom Park, Thawi Watthana, Bangkok", "stationType": "BKK", "lat": "13.7435329", "long": "100.3526893", "AQILast.PM25.aqi": "74", "AQILast.PM25.value": "30.9" }, "geometry": { "type": "Point", "coordinates": [ 100.3526893, 13.7435329 ] } },
{ "type": "Feature", "properties": { "stationID": "bkp128t", "nameTH": "สวนพระนคร", "nameEN": "Phra Nakhon Park", "areaTH": "สวนพระนคร เขตลาดกระบัง", "areaEN": "Phra Nakhon Park, Lat Krabang, Bangkok", "stationType": "BKK", "lat": "13.7201042", "long": "100.7807077", "AQILast.PM25.aqi": "-1", "AQILast.PM25.value": "-1" }, "geometry": { "type": "Point", "coordinates": [ 100.7807077, 13.7201042 ] } },
{ "type": "Feature", "properties": { "stationID": "bkp129t", "nameTH": "สวนหนองจอก", "nameEN": "Nong Chok Park", "areaTH": "สวนหนองจอก เขตหนองจอก", "areaEN": "Nong Chok Park, Nong Chok, Bangkok", "stationType": "BKK", "lat": "13.855656", "long": "100.8585539", "AQILast.PM25.aqi": "68", "AQILast.PM25.value": "29.5" }, "geometry": { "type": "Point", "coordinates": [ 100.8585539, 13.855656 ] } },
{ "type": "Feature", "properties": { "stationID": "bkp130t", "nameTH": "สวนกีฬารามอินทรา", "nameEN": "Ramintra Sports Park", "areaTH": "สวนกีฬารามอินทรา เขตบางเขน", "areaEN": "Ramintra Sports Park, Bang Khen, Bangkok", "stationType": "BKK", "lat": "13.8778763", "long": "100.6207085", "AQILast.PM25.aqi": "54", "AQILast.PM25.value": "25.8" }, "geometry": { "type": "Point", "coordinates": [ 100.6207085, 13.8778763 ] } },
{ "type": "Feature", "properties": { "stationID": "bkp131t", "nameTH": "สวนสาธารณะเฉลิมพระเกียรติ 6 รอบพระชนมพรรษา", "nameEN": "Public Park to commemorate the sixth anniversary of His Majesty the King", "areaTH": "สวนสาธารณะเฉลิมพระเกียรติ 6 รอบพระชนมพรรษา เขตบางคอแหลม", "areaEN": "Public Park to commemorate the sixth anniversary of His Majesty the King, Bang Kho Laem, Bangkok", "stationType": "BKK", "lat": "13.697252", "long": "100.497185", "AQILast.PM25.aqi": "39", "AQILast.PM25.value": "20.4" }, "geometry": { "type": "Point", "coordinates": [ 100.497185, 13.697252 ] } },
{ "type": "Feature", "properties": { "stationID": "bkp133t", "nameTH": "สวนหลวงพระราม 8", "nameEN": "Rama VIII Park", "areaTH": "สวนหลวงพระราม 8 เขตบางพลัด", "areaEN": "Rama VIII Park, Bang Plad, Bangkok", "stationType": "BKK", "lat": "13.7693437", "long": "100.4945337", "AQILast.PM25.aqi": "21", "AQILast.PM25.value": "12.4" }, "geometry": { "type": "Point", "coordinates": [ 100.4945337, 13.7693437 ] } },
{ "type": "Feature", "properties": { "stationID": "bkp56t", "nameTH": "สำนักงานเขตดินแดง กรุงเทพฯ", "nameEN": "Din Dang, Bangkok", "areaTH": "ริมถนนวิภาวดีรังสิต, เขตดินแดง, กรุงเทพฯ", "areaEN": "Din Dang, Bangkok", "stationType": "BKK", "lat": "13.7619223", "long": "100.558606", "AQILast.PM25.aqi": "57", "AQILast.PM25.value": "26.5" }, "geometry": { "type": "Point", "coordinates": [ 100.558606, 13.7619223 ] } },
{ "type": "Feature", "properties": { "stationID": "bkp57t", "nameTH": "สำนักงานเขตพระโขนง กรุงเทพฯ", "nameEN": "Phra Kanong District Office,  Bangkok", "areaTH": "ริมถนนสุขุมวิท เขตพระโขนง, กรุงเทพฯ", "areaEN": "Phra Kanong, Bangkok", "stationType": "BKK", "lat": "13.691511", "long": "100.61457", "AQILast.PM25.aqi": "40", "AQILast.PM25.value": "20.8" }, "geometry": { "type": "Point", "coordinates": [ 100.61457, 13.691511 ] } },
{ "type": "Feature", "properties": { "stationID": "bkp58t", "nameTH": "สำนักงานเขตราษฎร์บูรณะ กรุงเทพฯ", "nameEN": "Rat Burana District Office,  Bangkok", "areaTH": "ริมถนนราษฎร์บูรณะ, เขตราษฎร์บูรณะ, กรุงเทพฯ", "areaEN": "Rat Burana, Bangkok", "stationType": "BKK", "lat": "13.6821364", "long": "100.5060513", "AQILast.PM25.aqi": "59", "AQILast.PM25.value": "27.2" }, "geometry": { "type": "Point", "coordinates": [ 100.5060513, 13.6821364 ] } },
{ "type": "Feature", "properties": { "stationID": "bkp59t", "nameTH": "สำนักงานเขตราชเทวี กรุงเทพฯ", "nameEN": "Ratchathewi District Office, Bangkok", "areaTH": "ริมถนนพญาไท เขตราชเทวี, กรุงเทพฯ", "areaEN": "Phayathai Roadside, Ratchathewi, Bangkok", "stationType": "BKK", "lat": "13.7590851", "long": "100.5345788", "AQILast.PM25.aqi": "62", "AQILast.PM25.value": "27.8" }, "geometry": { "type": "Point", "coordinates": [ 100.5345788, 13.7590851 ] } },
{ "type": "Feature", "properties": { "stationID": "bkp60t", "nameTH": "ริมสวนหย่อมตรงข้ามสำนักงานเขตดุสิต", "nameEN": "Dusit District Office, Bangkok", "areaTH": "ริมถนนพระราม 5 เขตดุสิต, กรุงเทพฯ", "areaEN": "RamaV Roadside, Dusit, Bangkok", "stationType": "BKK", "lat": "13.776664", "long": "100.520982", "AQILast.PM25.aqi": "60", "AQILast.PM25.value": "27.3" }, "geometry": { "type": "Point", "coordinates": [ 100.520982, 13.776664 ] } },
{ "type": "Feature", "properties": { "stationID": "bkp61t", "nameTH": "สำนักงานคณะกรรมการพัฒนาเศรษฐกิจและสังคมแห่งชาติ", "nameEN": "National Economic and Social Development Council Office", "areaTH": "ริมถนนกรุงเกษม เขตป้อมปราบศัตรูพ่าย, กรุงเทพฯ", "areaEN": "Krung Kasem Roadside, Pom Prap Sattru Phai, Bangkok", "stationType": "BKK", "lat": "13.756281", "long": "100.514267", "AQILast.PM25.aqi": "51", "AQILast.PM25.value": "25.1" }, "geometry": { "type": "Point", "coordinates": [ 100.514267, 13.756281 ] } },
{ "type": "Feature", "properties": { "stationID": "bkp62t", "nameTH": "วงเวียนโอเดียน", "nameEN": "Odeon Circus", "areaTH": "ริมถนนตรีมิตร วงเวียนโอเดียน์ เขตสัมพันธวงศ์, กรุงเทพฯ", "areaEN": "TheeMitr Roadside, Samphanthawong, Bangkok", "stationType": "BKK", "lat": "13.737136", "long": "100.512734", "AQILast.PM25.aqi": "89", "AQILast.PM25.value": "34.7" }, "geometry": { "type": "Point", "coordinates": [ 100.512734, 13.737136 ] } },
{ "type": "Feature", "properties": { "stationID": "bkp63t", "nameTH": "แฟลตทหารบก สามเสน", "nameEN": "Army Apartment Sam Sen", "areaTH": "ริมถนนพระราม 6 เขตพญาไท, กรุงเทพฯ", "areaEN": "RamaVI Roadside, Phaya Thai, Bangkok", "stationType": "BKK", "lat": "13.783554", "long": "100.5344645", "AQILast.PM25.aqi": "58", "AQILast.PM25.value": "26.9" }, "geometry": { "type": "Point", "coordinates": [ 100.5344645, 13.783554 ] } },
{ "type": "Feature", "properties": { "stationID": "bkp64t", "nameTH": "สำนักงานเขตวังทองหลาง", "nameEN": "Wang Thonglang District Office, Bangkok", "areaTH": "ริมถนนลาดพร้าว ซอยลาดพร้าว 95 เขตวังทองหลาง, กรุงเทพฯ", "areaEN": "Lat Phrao Rd Soi 95, Wang Thonglang, Bangkok", "stationType": "BKK", "lat": "13.778981", "long": "100.622294", "AQILast.PM25.aqi": "108", "AQILast.PM25.value": "40.3" }, "geometry": { "type": "Point", "coordinates": [ 100.622294, 13.778981 ] } },
{ "type": "Feature", "properties": { "stationID": "bkp65t", "nameTH": "สามย่านมิตรทาวน์", "nameEN": "Samyan Mitrtown", "areaTH": "ริมถนนพระรามที่ 4 หน้าสามย่านมิตรทาวน์ เขตปทุมวัน, กรุงเทพฯ", "areaEN": "RamaIV Roadside, Pathum Wan, Bangkok", "stationType": "BKK", "lat": "13.733136", "long": "100.52829", "AQILast.PM25.aqi": "84", "AQILast.PM25.value": "33.4" }, "geometry": { "type": "Point", "coordinates": [ 100.52829, 13.733136 ] } },
{ "type": "Feature", "properties": { "stationID": "bkp66t", "nameTH": "ลานบางรักเลิฟลี่ พลาซ่า", "nameEN": "Bangrak Lovely Plaza", "areaTH": "ริมถนนนราธิวาส เขตบางรัก, กรุงเทพฯ", "areaEN": "Narathiwat Roadside, Bang Rak, Bangkok", "stationType": "BKK", "lat": "13.726136", "long": "100.528055", "AQILast.PM25.aqi": "76", "AQILast.PM25.value": "31.3" }, "geometry": { "type": "Point", "coordinates": [ 100.528055, 13.726136 ] } },
{ "type": "Feature", "properties": { "stationID": "bkp67t", "nameTH": "สำนักงานเขตสาทร", "nameEN": "Sathon District Office, Bangkok", "areaTH": "แขวงทุ่งวัดดอน เขตสาทร, กรุงเทพฯ", "areaEN": "Thung Wat Don, Sathon, Bangkok", "stationType": "BKK", "lat": "13.707763", "long": "100.526787", "AQILast.PM25.aqi": "70", "AQILast.PM25.value": "29.8" }, "geometry": { "type": "Point", "coordinates": [ 100.526787, 13.707763 ] } },
{ "type": "Feature", "properties": { "stationID": "bkp69t", "nameTH": "ธนาคารกรุงศรีอยุธยา สำนักงานใหญ่", "nameEN": "Bank of Ayuthaya Head Office Yan Nawa, Bangkok", "areaTH": "ริมถนนพระราม 3 เขตยานนาวา, กรุงเทพฯ", "areaEN": "RamaIII Roadside, Yan Nawa, Bangkok", "stationType": "BKK", "lat": "13.679226", "long": "100.54687", "AQILast.PM25.aqi": "60", "AQILast.PM25.value": "27.3" }, "geometry": { "type": "Point", "coordinates": [ 100.54687, 13.679226 ] } },
{ "type": "Feature", "properties": { "stationID": "bkp70t", "nameTH": "ริมถนนซอยสุขุมวิท 63", "nameEN": "Soi Sukhumwit 63 Roadside Wattana, Bangkok", "areaTH": "ริมถนนซอยสุขุมวิท 63 เขตวัฒนา, กรุงเทพฯ", "areaEN": "Soi Sukhumwit 63 Roadside, Wattana, Bangkok", "stationType": "BKK", "lat": "13.722096", "long": "100.584559", "AQILast.PM25.aqi": "48", "AQILast.PM25.value": "24.2" }, "geometry": { "type": "Point", "coordinates": [ 100.584559, 13.722096 ] } },
{ "type": "Feature", "properties": { "stationID": "bkp71t", "nameTH": "สำนักงานเขตสวนหลวง", "nameEN": "Suan Luang District Office, Bangkok", "areaTH": "ริมถนนพัฒนาการ เขตสวนหลวง, กรุงเทพฯ", "areaEN": "Suan Luang, Bangkok", "stationType": "BKK", "lat": "13.731051", "long": "100.651705", "AQILast.PM25.aqi": "46", "AQILast.PM25.value": "23.5" }, "geometry": { "type": "Point", "coordinates": [ 100.651705, 13.731051 ] } },
{ "type": "Feature", "properties": { "stationID": "bkp72t", "nameTH": "บิ๊กซี ซุปเปอร์เซ็นเตอร์ บางนา", "nameEN": "Big C Supercenter Bang Na", "areaTH": "ริมถนนบางนา-ตราด เขตบางนา, กรุงเทพฯ", "areaEN": "Bang Na-Trat Roadside, Bang na, Bangkok", "stationType": "BKK", "lat": "13.667987", "long": "100.635313", "AQILast.PM25.aqi": "92", "AQILast.PM25.value": "35.6" }, "geometry": { "type": "Point", "coordinates": [ 100.635313, 13.667987 ] } },
{ "type": "Feature", "properties": { "stationID": "bkp73t", "nameTH": "มหาวิทยาลัยเกษตรศาสตร์", "nameEN": "Kasertsart University", "areaTH": "ริมถนนพหลโยธิน แยก ม.เกษตรศาสตร์ เขตจตุจักร, กรุงเทพฯ", "areaEN": "Kasertsart Intersection, Chatuchak, Bangkok", "stationType": "BKK", "lat": "13.839923", "long": "100.575632", "AQILast.PM25.aqi": "84", "AQILast.PM25.value": "33.4" }, "geometry": { "type": "Point", "coordinates": [ 100.575632, 13.839923 ] } },
{ "type": "Feature", "properties": { "stationID": "bkp74t", "nameTH": "สำนักงานเขตดอนเมือง", "nameEN": "Don Mueng District Office, Bangkok", "areaTH": "เขตดอนเมือง, กรุงเทพฯ", "areaEN": "Don Mueng, Bangkok", "stationType": "BKK", "lat": "13.910986", "long": "100.594877", "AQILast.PM25.aqi": "70", "AQILast.PM25.value": "29.8" }, "geometry": { "type": "Point", "coordinates": [ 100.594877, 13.910986 ] } },
{ "type": "Feature", "properties": { "stationID": "bkp75t", "nameTH": "สำนักงานเขตสายไหม", "nameEN": "Sai Mai District Office, Bangkok", "areaTH": "ริมถนนสุขาภิบาล5 เขตสายไหม, กรุงเทพฯ", "areaEN": "Sukhaphiban 5 Roadside, Sai Mai, Bangkok", "stationType": "BKK", "lat": "13.896035", "long": "100.660628", "AQILast.PM25.aqi": "85", "AQILast.PM25.value": "33.7" }, "geometry": { "type": "Point", "coordinates": [ 100.660628, 13.896035 ] } },
{ "type": "Feature", "properties": { "stationID": "bkp76t", "nameTH": "สำนักงานเขตบางกะปิ", "nameEN": "Bang Kapi District Office, Bangkok", "areaTH": "ริมถนนนวมินทร์ แยกบางกะปิ เขตบางกะปิ, กรุงเทพฯ", "areaEN": "Navamin Roadside, Bang Kapi, Bangkok", "stationType": "BKK", "lat": "13.766478", "long": "100.647785", "AQILast.PM25.aqi": "43", "AQILast.PM25.value": "22.2" }, "geometry": { "type": "Point", "coordinates": [ 100.647785, 13.766478 ] } },
{ "type": "Feature", "properties": { "stationID": "bkp77t", "nameTH": "แยกสวนสยาม-รามอินทรา", "nameEN": "Suan Sayam-Ram Intra Intersection", "areaTH": "แยกสวนสยาม-รามอินทรา เขตคันนายาว, กรุงเทพฯ", "areaEN": "Suan Sayam-Ram Intra Intersection Khan Na Yao, Bangkok", "stationType": "BKK", "lat": "13.813844", "long": "100.686594", "AQILast.PM25.aqi": "65", "AQILast.PM25.value": "28.6" }, "geometry": { "type": "Point", "coordinates": [ 100.686594, 13.813844 ] } },
{ "type": "Feature", "properties": { "stationID": "bkp78t", "nameTH": "โรงพยาบาลลาดกระบัง", "nameEN": "Lat Krabang Hospital", "areaTH": "ริมถนนลาดกระบัง เขตลาดกระบัง, กรุงเทพฯ", "areaEN": "Lat Krabang Roadside, Lat Krabang, Bangkok", "stationType": "BKK", "lat": "13.72205", "long": "100.784069", "AQILast.PM25.aqi": "79", "AQILast.PM25.value": "32.3" }, "geometry": { "type": "Point", "coordinates": [ 100.784069, 13.72205 ] } },
{ "type": "Feature", "properties": { "stationID": "bkp79t", "nameTH": "สวนเฉลิมพระเกียรติ ร.9", "nameEN": "Chaloem Phrakiat Rama 9 Park Min buri, Bangkok", "areaTH": "ริมถนนสีหบุรานุกิจ เขตมีนบุรี, กรุงเทพฯ", "areaEN": "Sihaburanukit Roadside, Meenburi, Bangkok", "stationType": "BKK", "lat": "13.813578", "long": "100.73208", "AQILast.PM25.aqi": "66", "AQILast.PM25.value": "29.0" }, "geometry": { "type": "Point", "coordinates": [ 100.73208, 13.813578 ] } },
{ "type": "Feature", "properties": { "stationID": "bkp80t", "nameTH": "สำนักงานเขตหนองจอก", "nameEN": "Nong Chok District Office, Bangkok", "areaTH": "ริมถนนเลียบวารี เขตหนองจอก, กรุงเทพฯ", "areaEN": "Liap Wari Roadsire, Nong Chok, Bangkok", "stationType": "BKK", "lat": "13.855362", "long": "100.86267", "AQILast.PM25.aqi": "104", "AQILast.PM25.value": "38.8" }, "geometry": { "type": "Point", "coordinates": [ 100.86267, 13.855362 ] } },
{ "type": "Feature", "properties": { "stationID": "bkp81t", "nameTH": "ซีคอน สแควร์", "nameEN": "Seacon Square", "areaTH": "ริมถนนศรีนครินทร์ เขตประเวศ, กรุงเทพฯ", "areaEN": "Srinakarin Roadside, Prawet, Bangkok", "stationType": "BKK", "lat": "13.695561", "long": "100.647615", "AQILast.PM25.aqi": "91", "AQILast.PM25.value": "35.3" }, "geometry": { "type": "Point", "coordinates": [ 100.647615, 13.695561 ] } },
{ "type": "Feature", "properties": { "stationID": "bkp82t", "nameTH": "แยกมไหศวรรย์", "nameEN": "Mahaisawan Intersection", "areaTH": "ริมถนนรัชดาภิเษก-ท่าพระ เขตธนบุรี, กรุงเทพฯ", "areaEN": "Ratchadaphisek Roadside, Thon Buri, Bangkok", "stationType": "BKK", "lat": "13.70515", "long": "100.48465", "AQILast.PM25.aqi": "50", "AQILast.PM25.value": "24.8" }, "geometry": { "type": "Point", "coordinates": [ 100.48465, 13.70515 ] } },
{ "type": "Feature", "properties": { "stationID": "bkp83t", "nameTH": "ห้องสมุดใต้สะพานสมเด็จพระเจ้าตากสิน", "nameEN": "Library under King Taksin Bridge", "areaTH": "ริมถนนเจริญนคร เขตคลองสาน, กรุงเทพฯ", "areaEN": "Charoen Nakorn Roadside, Klong San, Bangkok", "stationType": "BKK", "lat": "13.719705", "long": "100.508782", "AQILast.PM25.aqi": "82", "AQILast.PM25.value": "32.9" }, "geometry": { "type": "Point", "coordinates": [ 100.508782, 13.719705 ] } },
{ "type": "Feature", "properties": { "stationID": "bkp84t", "nameTH": "สี่แยกท่าพระ", "nameEN": "Tha phra Intersection", "areaTH": "ริมถนนแยกท่าพระ เขตบางกอกใหญ่, กรุงเทพฯ", "areaEN": "Tha phra Intersection, Bangkok Yai, Bangkok", "stationType": "BKK", "lat": "13.729431", "long": "100.474373", "AQILast.PM25.aqi": "73", "AQILast.PM25.value": "30.6" }, "geometry": { "type": "Point", "coordinates": [ 100.474373, 13.729431 ] } },
{ "type": "Feature", "properties": { "stationID": "bkp85t", "nameTH": "สถานีตำรวจรถไฟบางกอกน้อย", "nameEN": "Bangkok Noi Train Police Station", "areaTH": "ริมถนนซอยนิคมบ้านพักรถไฟธนบุรี 5 เขตบางกอกน้อย, กรุงเทพฯ", "areaEN": "Soi Nikhom Banphak Rodfai Thonburi5, Bangkok Noi, Bangkok", "stationType": "BKK", "lat": "13.759619", "long": "100.481137", "AQILast.PM25.aqi": "85", "AQILast.PM25.value": "33.8" }, "geometry": { "type": "Point", "coordinates": [ 100.481137, 13.759619 ] } },
{ "type": "Feature", "properties": { "stationID": "bkp86t", "nameTH": "ถนนพุทธมณฑลสาย 1 ตัดกับถนนบรมราชชนนี", "nameEN": "Phutthamonthon 1 - Borommaratchachonnani Intersection", "areaTH": "ริมถนนพุทธมณฑล 1 เขตตลิ่งชัน, กรุงเทพฯ", "areaEN": "Phutthamonthon 1 Roadside, Taling Chan, Bangkok", "stationType": "BKK", "lat": "13.780778", "long": "100.426727", "AQILast.PM25.aqi": "59", "AQILast.PM25.value": "27.2" }, "geometry": { "type": "Point", "coordinates": [ 100.426727, 13.780778 ] } },
{ "type": "Feature", "properties": { "stationID": "bkp87t", "nameTH": "ตลาดธนบุรีสนามหลวง 2", "nameEN": "Thon Buri Market Sanam Luang 2", "areaTH": "ริมถนนคลองทวีวัฒนา เขตทวีวัฒนา, กรุงเทพฯ", "areaEN": "Klong Thawi Watthana Roadside, Thawi Watthana, Bangkok", "stationType": "BKK", "lat": "13.746257", "long": "100.355099", "AQILast.PM25.aqi": "57", "AQILast.PM25.value": "26.5" }, "geometry": { "type": "Point", "coordinates": [ 100.355099, 13.746257 ] } },
{ "type": "Feature", "properties": { "stationID": "bkp88t", "nameTH": "มหาวิทยาลัยสยาม", "nameEN": "Siam University", "areaTH": "ริมถนนเพชรเกษม เขตภาษีเจริญ, กรุงเทพฯ", "areaEN": "Petchkasem Roadside, Phasi Charoen, Bangkok", "stationType": "BKK", "lat": "13.718689", "long": "100.45391", "AQILast.PM25.aqi": "52", "AQILast.PM25.value": "25.4" }, "geometry": { "type": "Point", "coordinates": [ 100.45391, 13.718689 ] } },
{ "type": "Feature", "properties": { "stationID": "bkp89t", "nameTH": "ริมถนนมาเจริญ เพชรเกษม 8, เขตหนองแขม", "nameEN": "Ma Charean Roadside, Petcha Kasem 8, Nong Khaem", "areaTH": "ริมถนนมาเจริญ เพชรเกษม 81 เขตหนองแขม, กรุงเทพฯ", "areaEN": "Ma Charean Roadside Nong Khaem, Bangkok", "stationType": "BKK", "lat": "13.705582", "long": "100.343164", "AQILast.PM25.aqi": "60", "AQILast.PM25.value": "27.3" }, "geometry": { "type": "Point", "coordinates": [ 100.343164, 13.705582 ] } },
{ "type": "Feature", "properties": { "stationID": "bkp90t", "nameTH": "ตลาดบางบอน 5", "nameEN": "Bang Bon 5 Market", "areaTH": "ริมถนนเอกชัย เขตบางบอน, กรุงเทพฯ", "areaEN": "Ekkachai Roadside, Bang Bon, Bangkok", "stationType": "BKK", "lat": "13.639165", "long": "100.372958", "AQILast.PM25.aqi": "71", "AQILast.PM25.value": "30.2" }, "geometry": { "type": "Point", "coordinates": [ 100.372958, 13.639165 ] } },
{ "type": "Feature", "properties": { "stationID": "bkp91t", "nameTH": "มหาวิทยาลัยเทคโนโลยีพระจอมเกล้าธนบุรี", "nameEN": "King Mongkut's University of Technology Thonburi ", "areaTH": "ริมถนนประชาอุทิศ เขตทุ่งครุ, กรุงเทพฯ", "areaEN": "Pracha Uthit Roadside, Thung Khru, Bangkok", "stationType": "BKK", "lat": "13.651004", "long": "100.496673", "AQILast.PM25.aqi": "66", "AQILast.PM25.value": "29.0" }, "geometry": { "type": "Point", "coordinates": [ 100.496673, 13.651004 ] } },
{ "type": "Feature", "properties": { "stationID": "bkp92t", "nameTH": "สำนักงานเขตพระนคร", "nameEN": "Phra Nakhon District Office, Bangkok", "areaTH": "ริมถนนสามเสน เขตพระนคร, กรุงเทพฯ", "areaEN": "Samsen Roadside, Phra Nakhon, Bangkok", "stationType": "BKK", "lat": "13.76415", "long": "100.499077", "AQILast.PM25.aqi": "57", "AQILast.PM25.value": "26.6" }, "geometry": { "type": "Point", "coordinates": [ 100.499077, 13.76415 ] } },
{ "type": "Feature", "properties": { "stationID": "bkp93t", "nameTH": "สำนักงานเขตห้วยขวาง", "nameEN": "Huai Khwang District Office, Bangkok", "areaTH": "เขตห้วยขวาง, กรุงเทพฯ", "areaEN": "Huai Khwang, Bangkok", "stationType": "BKK", "lat": "13.77682", "long": "100.579543", "AQILast.PM25.aqi": "48", "AQILast.PM25.value": "24.2" }, "geometry": { "type": "Point", "coordinates": [ 100.579543, 13.77682 ] } },
{ "type": "Feature", "properties": { "stationID": "bkp94t", "nameTH": "สำนักงานเขตคลองเตย", "nameEN": "Khlong Toei District Office, Bangkok", "areaTH": "แขวงคลองเตย เขตคลองเตย, กรุงเทพฯ", "areaEN": "Khlong Toei, Bangkok", "stationType": "BKK", "lat": "13.708488", "long": "100.583747", "AQILast.PM25.aqi": "66", "AQILast.PM25.value": "29.0" }, "geometry": { "type": "Point", "coordinates": [ 100.583747, 13.708488 ] } },
{ "type": "Feature", "properties": { "stationID": "bkp95t", "nameTH": "สำนักงานเขตบางซื่อ", "nameEN": "Bang Sue District Office, Bangkok", "areaTH": "แขวงบางซื่อ เขตบางซื่อ, กรุงเทพฯ", "areaEN": "Bang Sue, Bangkok", "stationType": "BKK", "lat": "13.809596", "long": "100.537883", "AQILast.PM25.aqi": "68", "AQILast.PM25.value": "29.3" }, "geometry": { "type": "Point", "coordinates": [ 100.537883, 13.809596 ] } },
{ "type": "Feature", "properties": { "stationID": "bkp96t", "nameTH": "สำนักงานเขตลาดพร้าว", "nameEN": "Ladphrao District Office, Bangkok", "areaTH": "เขตลาดพร้าว, กรุงเทพฯ", "areaEN": "Ladphrao, Bangkok", "stationType": "BKK", "lat": "13.803587", "long": "100.607535", "AQILast.PM25.aqi": "52", "AQILast.PM25.value": "25.3" }, "geometry": { "type": "Point", "coordinates": [ 100.607535, 13.803587 ] } },
{ "type": "Feature", "properties": { "stationID": "bkp97t", "nameTH": "สำนักงานเขตหลักสี่", "nameEN": "Lak Si District Office, Bangkok", "areaTH": "แขวงทุ่งสองห้อง เขตหลักสี่, กรุงเทพฯ", "areaEN": "Thung Song Hong, Lak Si, Bangkok", "stationType": "BKK", "lat": "13.887395", "long": "100.579247", "AQILast.PM25.aqi": "67", "AQILast.PM25.value": "29.2" }, "geometry": { "type": "Point", "coordinates": [ 100.579247, 13.887395 ] } },
{ "type": "Feature", "properties": { "stationID": "bkp98t", "nameTH": "สำนักงานเขตบางเขน", "nameEN": "Bang Khen District Office, Bangkok", "areaTH": "ริมถนนพหลโยธิน เขตบางเขน, กรุงเทพฯ", "areaEN": "Phahon Yothin Roadside, Bang Khen, Bangkok", "stationType": "BKK", "lat": "13.873603", "long": "100.595839", "AQILast.PM25.aqi": "70", "AQILast.PM25.value": "29.8" }, "geometry": { "type": "Point", "coordinates": [ 100.595839, 13.873603 ] } },
{ "type": "Feature", "properties": { "stationID": "bkp99t", "nameTH": "สำนักงานเขตสะพานสูง", "nameEN": "Saphan Sung District Office, Bangkok", "areaTH": "เขตสะพานสูง, กรุงเทพฯ", "areaEN": "Saphan Sung, Bangkok", "stationType": "BKK", "lat": "13.768892", "long": "100.685743", "AQILast.PM25.aqi": "47", "AQILast.PM25.value": "23.8" }, "geometry": { "type": "Point", "coordinates": [ 100.685743, 13.768892 ] } },
{ "type": "Feature", "properties": { "stationID": "o10", "nameTH": "เคหะชุมชนคลองจั่น", "nameEN": "National Housing Authority Klongchan", "areaTH": "แขวงคลองจั่น เขตบางกะปิ, กรุงเทพฯ", "areaEN": "Khlong Chan, Khet Bang Kapi, Bangkok", "stationType": "GROUND", "lat": "13.779873", "long": "100.646009", "AQILast.PM25.aqi": "49", "AQILast.PM25.value": "24.6" }, "geometry": { "type": "Point", "coordinates": [ 100.646009, 13.779873 ] } },
{ "type": "Feature", "properties": { "stationID": "79t", "nameTH": "สถานีอุตุนิยมวิทยา จ.กาญจนบุรี", "nameEN": "Kanchanaburi Meteorological Station", "areaTH": "ต.บ้านเหนือ อ.เมือง, กาญจนบุรี", "areaEN": "Ban Nuea, Mueang, Kanchanaburi", "stationType": "GROUND", "lat": "14.022376", "long": "99.536195", "AQILast.PM25.aqi": "136", "AQILast.PM25.value": "50.8" }, "geometry": { "type": "Point", "coordinates": [ 99.536195, 14.022376 ] } },
{ "type": "Feature", "properties": { "stationID": "107t", "nameTH": "สวนสาธารณะแก่งดอนกลาง", "nameEN": "KAENG DON KLANG PARK", "areaTH": "ต.กาฬสินธุ์ อ.เมือง, กาฬสินธ์ุ", "areaEN": "Kalasin Subdistrict, Mueang Kalasin District, Kalasin", "stationType": "GROUND", "lat": "16.4436", "long": "103.513", "AQILast.PM25.aqi": "189", "AQILast.PM25.value": "70.9" }, "geometry": { "type": "Point", "coordinates": [ 103.513, 16.4436 ] } },
{ "type": "Feature", "properties": { "stationID": "94t", "nameTH": "ลานอนุรักษ์วัฒนธรรมไทยสิริจิตอุทยาน", "nameEN": "Sirichit Thai Cultural Conservation Ground", "areaTH": "ต.ในเมือง อ.เมือง, กำแพงเพชร", "areaEN": "Nai Mueang Subdistrict, Mueang District, Kamphaeng Phet", "stationType": "GROUND", "lat": "16.475374", "long": "99.525425", "AQILast.PM25.aqi": "44", "AQILast.PM25.value": "22.7" }, "geometry": { "type": "Point", "coordinates": [ 99.525425, 16.475374 ] } },
{ "type": "Feature", "properties": { "stationID": "46t", "nameTH": "ส่วนอุทกวิทยา สำนักงานทรัพยากรน้ำภาคที่4 ขอนแก่น", "nameEN": "Hydrogeological Group Water Resources Regional Office4 khonkaen", "areaTH": "ต.ในเมือง อ.เมือง, ขอนแก่น", "areaEN": "Nai Mueang, Mueang, Khon Kaen", "stationType": "GROUND", "lat": "16.44538333", "long": "102.83525", "AQILast.PM25.aqi": "144", "AQILast.PM25.value": "53.7" }, "geometry": { "type": "Point", "coordinates": [ 102.83525, 16.44538333 ] } },
{ "type": "Feature", "properties": { "stationID": "100t", "nameTH": "สถานีอุตุนิยมวิทยาจันทบุรี", "nameEN": "Chanthaburi Meteorological Station", "areaTH": "ต.วัดใหม่ อ.เมือง, จันทบุรี", "areaEN": "Wat Mai Subdistrict, Mueang District, Chanthaburi", "stationType": "GROUND", "lat": "12.6095704", "long": "102.1040804", "AQILast.PM25.aqi": "41", "AQILast.PM25.value": "21.4" }, "geometry": { "type": "Point", "coordinates": [ 102.1040804, 12.6095704 ] } },
{ "type": "Feature", "properties": { "stationID": "60t", "nameTH": "สำนักงานเทศบาลตำบลทุ่งสะเดา", "nameEN": "Municipality Office Tungsadao", "areaTH": "ต.วังเย็น อ.แปลงยาว, ฉะเชิงเทรา", "areaEN": "Wang Yen, Plaeng Yao, Chachoengsao", "stationType": "GROUND", "lat": "13.5885", "long": "101.2863333", "AQILast.PM25.aqi": "94", "AQILast.PM25.value": "36.1" }, "geometry": { "type": "Point", "coordinates": [ 101.2863333, 13.5885 ] } },
{ "type": "Feature", "properties": { "stationID": "33t", "nameTH": "โรงพยาบาลส่งเสริมสุขภาพตำบลบ้านเขาหิน", "nameEN": "Health Promotion Hospital Bankhaohin", "areaTH": "ต.บ่อวิน อ.ศรีราชา, ชลบุรี", "areaEN": "Bo Win, Si Racha, Chon buri", "stationType": "GROUND", "lat": "13.054551", "long": "101.098128", "AQILast.PM25.aqi": "40", "AQILast.PM25.value": "20.8" }, "geometry": { "type": "Point", "coordinates": [ 101.098128, 13.054551 ] } },
{ "type": "Feature", "properties": { "stationID": "34t", "nameTH": "สำนักงานสิ่งแวดล้อมภาคที่ 13 ", "nameEN": "Environment Agency Section 13, Chonburi", "areaTH": "ต.บ้านสวน อ.เมือง, ชลบุรี", "areaEN": "Ban Suan, Mueang, Chon Buri", "stationType": "GROUND", "lat": "13.35461667", "long": "100.9792167", "AQILast.PM25.aqi": "42", "AQILast.PM25.value": "21.5" }, "geometry": { "type": "Point", "coordinates": [ 100.9792167, 13.35461667 ] } },
{ "type": "Feature", "properties": { "stationID": "o61", "nameTH": "สนามกีฬาเทศบาลแหลมฉบัง ", "nameEN": "Laem Chabang Municipal Stadium", "areaTH": "ต.ทุ่งสุขลา อ.ศรีราชา, ชลบุรี", "areaEN": "Thung Sukhla, Si Racha, Chon buri", "stationType": "GROUND", "lat": "13.11923333", "long": "100.91855", "AQILast.PM25.aqi": "41", "AQILast.PM25.value": "21.4" }, "geometry": { "type": "Point", "coordinates": [ 100.91855, 13.11923333 ] } },
{ "type": "Feature", "properties": { "stationID": "o26", "nameTH": "สำนักงานทรัพยากรธรรมชาติและสิ่งแวดล้อมจังหวัดชัยนาท", "nameEN": "Natural Resources and Environment Office, Chainat", "areaTH": "ต.ในเมือง อ.เมือง, ชัยนาท", "areaEN": "Nai Mueang Subdistrict, Mueang District, Chainat", "stationType": "MOBILE", "lat": "15.173056", "long": "100.126944", "AQILast.PM25.aqi": "135", "AQILast.PM25.value": "50.4" }, "geometry": { "type": "Point", "coordinates": [ 100.126944, 15.173056 ] } },
{ "type": "Feature", "properties": { "stationID": "108t", "nameTH": "สนามกีฬาเทศบาลเมืองชัยภูมิ", "nameEN": "Mueang Chaiyaphum Municipality Stadium", "areaTH": " ต.ในเมือง อ.เมืองชัยภูมิ, ชัยภูมิ", "areaEN": " Nai Mueang Subdistrict, Mueang Chaiyaphum District, Chaiyaphum", "stationType": "GROUND", "lat": "15.81148", "long": "102.02281", "AQILast.PM25.aqi": "116", "AQILast.PM25.value": "43.3" }, "geometry": { "type": "Point", "coordinates": [ 102.02281, 15.81148 ] } },
{ "type": "Feature", "properties": { "stationID": "93t", "nameTH": "วิทยาลัยสารพัดช่างตรัง", "nameEN": "Polytechnic College, Trang ", "areaTH": "ต.นาตาล่วง อ.เมือง, ตรัง", "areaEN": "Na Ta Luang Subdistrict, Mueang District, Trang", "stationType": "GROUND", "lat": "7.570238", "long": "99.588743", "AQILast.PM25.aqi": "23", "AQILast.PM25.value": "13.8" }, "geometry": { "type": "Point", "coordinates": [ 99.588743, 7.570238 ] } },
{ "type": "Feature", "properties": { "stationID": "87t", "nameTH": "สนามกีฬากลางจังหวัดตราด", "nameEN": "Trat Provincial Central Stadium", "areaTH": "ต.บางพระ อ.เมือง, ตราด", "areaEN": "Bang Phra, Mueang, Trat", "stationType": "GROUND", "lat": "12.234862", "long": "102.523721", "AQILast.PM25.aqi": "60", "AQILast.PM25.value": "27.3" }, "geometry": { "type": "Point", "coordinates": [ 102.523721, 12.234862 ] } },
{ "type": "Feature", "properties": { "stationID": "76t", "nameTH": "ศูนย์การศึกษานอกโรงเรียน", "nameEN": "Non-Formal Education Centre, Mea Sot", "areaTH": "ต.แม่ปะ อ.แม่สอด, ตาก", "areaEN": "MaePa, MaeSot, Tak", "stationType": "GROUND", "lat": "16.734413", "long": "98.566961", "AQILast.PM25.aqi": "56", "AQILast.PM25.value": "26.3" }, "geometry": { "type": "Point", "coordinates": [ 98.566961, 16.734413 ] } },
{ "type": "Feature", "properties": { "stationID": "105t", "nameTH": "ศูนย์บริการสาธารณสุขเทศบาลเมืองนครนายก", "nameEN": "Nakhon Nayok Municipality Public Health Service Center", "areaTH": "ต.บ้านใหญ่ อ.เมือง, นครนายก", "areaEN": "Ban Yai Subdistrict, Mueang District, Nakhon Nayok", "stationType": "GROUND", "lat": "14.20422", "long": "101.21509", "AQILast.PM25.aqi": "103", "AQILast.PM25.value": "38.5" }, "geometry": { "type": "Point", "coordinates": [ 101.21509, 14.20422 ] } },
{ "type": "Feature", "properties": { "stationID": "81t", "nameTH": "อ่างเก็บน้ำประปา", "nameEN": "Water reservoir", "areaTH": "ต.นครปฐม อ.เมือง, นครปฐม", "areaEN": "Mueang, Nakhon Pathom", "stationType": "GROUND", "lat": "13.832076", "long": "100.057961", "AQILast.PM25.aqi": "48", "AQILast.PM25.value": "24.1" }, "geometry": { "type": "Point", "coordinates": [ 100.057961, 13.832076 ] } },
{ "type": "Feature", "properties": { "stationID": "88t", "nameTH": "สถานีอุตุนิยมวิทยานครพนม", "nameEN": "Meteorological stations, Nakhon Phanom", "areaTH": "ต.ในเมือง อ.เมือง, นครพนม", "areaEN": "Nai Mueang, Meuang, Nakhon Phanom", "stationType": "GROUND", "lat": "17.412345", "long": "104.7786123", "AQILast.PM25.aqi": "189", "AQILast.PM25.value": "71.0" }, "geometry": { "type": "Point", "coordinates": [ 104.7786123, 17.412345 ] } },
{ "type": "Feature", "properties": { "stationID": "47t", "nameTH": "สถานีสูบน้ำประตูพลแสน", "nameEN": "Municipal Waste Water Pumping Station", "areaTH": "ต.ในเมือง อ.เมือง, นครราชสีมา", "areaEN": "Nai Mueang, Mueang, Nakhon Ratchasima", "stationType": "GROUND", "lat": "14.979537", "long": "102.098335", "AQILast.PM25.aqi": "175", "AQILast.PM25.value": "65.5" }, "geometry": { "type": "Point", "coordinates": [ 102.098335, 14.979537 ] } },
{ "type": "Feature", "properties": { "stationID": "89t", "nameTH": "ศูนย์ฟื้นฟูสุขภาพผู้สูงอายุ", "nameEN": "Elderly Health Rehabilitation Center", "areaTH": "ต.คลัง อ.เมือง, นครศรีธรรมราช", "areaEN": "Khlang, Mueang, Nakhon Si Thammarat", "stationType": "GROUND", "lat": "8.426923", "long": "99.961469", "AQILast.PM25.aqi": "43", "AQILast.PM25.value": "22.2" }, "geometry": { "type": "Point", "coordinates": [ 99.961469, 8.426923 ] } },
{ "type": "Feature", "properties": { "stationID": "41t", "nameTH": "โครงการชลประทานนครสวรรค์", "nameEN": "Nakhonsawan Irrigation Project ", "areaTH": "ต.ปากน้ำโพ อ.เมือง, นครสวรรค์", "areaEN": "Pak Nam Pho, Mueang, Nakhon Sawan", "stationType": "GROUND", "lat": "15.68623", "long": "100.110556", "AQILast.PM25.aqi": "111", "AQILast.PM25.value": "41.2" }, "geometry": { "type": "Point", "coordinates": [ 100.110556, 15.68623 ] } },
{ "type": "Feature", "properties": { "stationID": "13t", "nameTH": "กรมควบควบคุมโรค", "nameEN": "Department of Disease Control", "areaTH": "ต.ตลาดขวัญ อ.เมือง, นนทบุรี", "areaEN": "Talad Kwan, Muang, Nonthaburi", "stationType": "GROUND", "lat": "13.852778", "long": "100.529444", "AQILast.PM25.aqi": "47", "AQILast.PM25.value": "23.7" }, "geometry": { "type": "Point", "coordinates": [ 100.529444, 13.852778 ] } },
{ "type": "Feature", "properties": { "stationID": "22t", "nameTH": "มหาวิทยาลัยสุโขทัยธรรมาธิราช ", "nameEN": "Sukhothai Thammathirat Open University", "areaTH": "ต.บางพูด อ.ปากเกร็ด, นนทบุรี", "areaEN": "Bang Phut, Pak Kret, Nonthaburi", "stationType": "GROUND", "lat": "13.907861", "long": "100.535641", "AQILast.PM25.aqi": "54", "AQILast.PM25.value": "25.8" }, "geometry": { "type": "Point", "coordinates": [ 100.535641, 13.907861 ] } },
{ "type": "Feature", "properties": { "stationID": "62t", "nameTH": "ศาลากลางจังหวัดนราธิวาส ", "nameEN": "City Hall, Narathiwat", "areaTH": "ต.บางนาค อ.เมือง, นราธิวาส", "areaEN": "Bang Nak, Mueang, Narathiwat", "stationType": "GROUND", "lat": "6.426853", "long": "101.823388", "AQILast.PM25.aqi": "43", "AQILast.PM25.value": "22.2" }, "geometry": { "type": "Point", "coordinates": [ 101.823388, 6.426853 ] } },
{ "type": "Feature", "properties": { "stationID": "67t", "nameTH": "สำนักงานเทศบาลเมืองน่าน", "nameEN": "Municipality Office, Nan", "areaTH": "ต.ในเวียง อ.เมือง, น่าน", "areaEN": "Nai Wiang, Mueang, Nan", "stationType": "GROUND", "lat": "18.7888833", "long": "100.7763166", "AQILast.PM25.aqi": "65", "AQILast.PM25.value": "28.6" }, "geometry": { "type": "Point", "coordinates": [ 100.7763166, 18.7888833 ] } },
{ "type": "Feature", "properties": { "stationID": "75t", "nameTH": "โรงพยาบาลเฉลิมพระเกียรติ ", "nameEN": "Chalermprakiet Hospital", "areaTH": "ต.ห้วยโก๋น อ.เฉลิมพระเกียรติ, น่าน", "areaEN": "Huai Kon, Chaloem Phra Kiat, Nan", "stationType": "GROUND", "lat": "19.5759666", "long": "101.0815166", "AQILast.PM25.aqi": "36", "AQILast.PM25.value": "19.2" }, "geometry": { "type": "Point", "coordinates": [ 101.0815166, 19.5759666 ] } },
{ "type": "Feature", "properties": { "stationID": "106t", "nameTH": "สวนสาธารณะหนองบึงกาฬ", "nameEN": "Nong Bueng Kan Park", "areaTH": "ต.บึงกาฬ อ.เมือง, จ.บึงกาฬ ", "areaEN": "Mueang, Bueng Kan", "stationType": "GROUND", "lat": "18.362008", "long": "103.65977", "AQILast.PM25.aqi": "22", "AQILast.PM25.value": "12.9" }, "geometry": { "type": "Point", "coordinates": [ 103.65977, 18.362008 ] } },
{ "type": "Feature", "properties": { "stationID": "101t", "nameTH": "ศาลากลางจังหวัดบุรีรัมย์", "nameEN": "Buriram City Hall", "areaTH": "ต.เสม็ด อ.เมือง, บุรีรัมย์", "areaEN": "Samed Subdistrict, Mueang District, Buriram", "stationType": "GROUND", "lat": "14.945452", "long": "103.105896", "AQILast.PM25.aqi": "169", "AQILast.PM25.value": "63.4" }, "geometry": { "type": "Point", "coordinates": [ 103.105896, 14.945452 ] } },
{ "type": "Feature", "properties": { "stationID": "20t", "nameTH": "มหาวิทยาลัยกรุงเทพ วิทยาเขตรังสิต ", "nameEN": "Bangkok University Rangsit Campus", "areaTH": "ต.คลองหนึ่ง อ.คลองหลวง, ปทุมธานี", "areaEN": "Khlong Nueng, Khlong Luang, Pathum Thani", "stationType": "GROUND", "lat": "14.03742", "long": "100.605216", "AQILast.PM25.aqi": "96", "AQILast.PM25.value": "36.4" }, "geometry": { "type": "Point", "coordinates": [ 100.605216, 14.03742 ] } },
{ "type": "Feature", "properties": { "stationID": "103t", "nameTH": " สถานีตรวจอากาศหัวหิน สถานีอุตุนิยมวิทยาประจวบคีรีขันธ์", "nameEN": "Hua Hin Weather Station Prachuap Khiri Khan Meteorological Station", "areaTH": "ต.หัวหิน อ.หัวหิน, ประจวบคิรีขันธ์", "areaEN": "Hua Hin Subdistrict, Hua Hin District, Prachuap Khiri Khan", "stationType": "GROUND", "lat": "12.577835", "long": "99.953663", "AQILast.PM25.aqi": "43", "AQILast.PM25.value": "22.3" }, "geometry": { "type": "Point", "coordinates": [ 99.953663, 12.577835 ] } },
{ "type": "Feature", "properties": { "stationID": "77t", "nameTH": "ศาลาประชาคมบ้านบุยายใบ", "nameEN": "Bu Yai Bai Hall Station", "areaTH": "ต.ท่าตูม อ.ศรีมหาโพธิ, ปราจีนบุรี", "areaEN": "Tha Tum, SiMahaPhot, Prachin Buri", "stationType": "GROUND", "lat": "13.917563", "long": "101.590529", "AQILast.PM25.aqi": "217", "AQILast.PM25.value": "91.2" }, "geometry": { "type": "Point", "coordinates": [ 101.590529, 13.917563 ] } },
{ "type": "Feature", "properties": { "stationID": "o65", "nameTH": "สำนักงานทรัพยากรธรรมชาติและสิ่งแวดล้อมจังหวัดปัตตานี", "nameEN": "Provincial Natural Resources and Environmental Office", "areaTH": "ต.รูสะมิแล อ.เมือง, ปัตตานี", "areaEN": "Mueang, Pattanee", "stationType": "MOBILE", "lat": "6.890639752808323", "long": "101.25106087293467", "AQILast.PM25.aqi": "35", "AQILast.PM25.value": "18.9" }, "geometry": { "type": "Point", "coordinates": [ 101.251060872934673, 6.890639752808323 ] } },
{ "type": "Feature", "properties": { "stationID": "21t", "nameTH": "โรงเรียนอยุธยาวิทยาลัย", "nameEN": "Ayutthaya Witthayalai School", "areaTH": "ต.ประตูชัย อ.พระนครศรีอยุธยา, พระนครศรีอยุธยา", "areaEN": "Pratu Chai, Phra Nakhon Si Ayutthaya", "stationType": "GROUND", "lat": "14.35222", "long": "100.565325", "AQILast.PM25.aqi": "98", "AQILast.PM25.value": "37.1" }, "geometry": { "type": "Point", "coordinates": [ 100.565325, 14.35222 ] } },
{ "type": "Feature", "properties": { "stationID": "70t", "nameTH": "สนามกีฬาจังหวัดพะเยา", "nameEN": "Phayao Provincial, Phayao", "areaTH": "ต.บ้านต๋อม อ.เมือง, พะเยา", "areaEN": "Bantom, Meuang, Phayao", "stationType": "GROUND", "lat": "19.200226", "long": "99.893048", "AQILast.PM25.aqi": "61", "AQILast.PM25.value": "27.7" }, "geometry": { "type": "Point", "coordinates": [ 99.893048, 19.200226 ] } },
{ "type": "Feature", "properties": { "stationID": "o67", "nameTH": "สำนักงานทรัพยากรธรรมชาติและสิ่งแวดล้อมจังหวัดพัทลุง", "nameEN": "Natural Resource and Environment, Phatthalung", "areaTH": "ต.ควนมะพร้าว อ.เมือง, พัทลุง", "areaEN": "Khuan Maphrao, Mueang, Phatthalung", "stationType": "MOBILE", "lat": "7.614396", "long": "100.113766", "AQILast.PM25.aqi": "32", "AQILast.PM25.value": "17.5" }, "geometry": { "type": "Point", "coordinates": [ 100.113766, 7.614396 ] } },
{ "type": "Feature", "properties": { "stationID": "95t", "nameTH": "สนามกีฬาจังหวัดพิจิตร", "nameEN": " Phichit Provincial , Phichit", "areaTH": "ต.ในเมือง อ.เมือง, พิจิตร", "areaEN": "Nai Mueang Subdistrict, Mueang District, Phichit", "stationType": "GROUND", "lat": "16.442554", "long": "100.322756", "AQILast.PM25.aqi": "60", "AQILast.PM25.value": "27.3" }, "geometry": { "type": "Point", "coordinates": [ 100.322756, 16.442554 ] } },
{ "type": "Feature", "properties": { "stationID": "86t", "nameTH": "สวนชมน่านเฉลิมพระเกียรติ", "nameEN": "Chom Nan Chaloem Phrakiat Public Park", "areaTH": "ต.ในเมือง อ.เมือง, พิษณุโลก", "areaEN": "Nai Mueang, Mueang, Phitsanulok", "stationType": "GROUND", "lat": "16.820833", "long": "100.258056", "AQILast.PM25.aqi": "48", "AQILast.PM25.value": "24.0" }, "geometry": { "type": "Point", "coordinates": [ 100.258056, 16.820833 ] } },
{ "type": "Feature", "properties": { "stationID": "43t", "nameTH": "ศูนย์บริการสาธารณสุขเทศบาลภูเก็ต", "nameEN": "Municipal Health Center", "areaTH": "ต.ตลาดใหญ่ อ.เมือง, ภูเก็ต", "areaEN": "Talat Yai, Mueang, Phuket", "stationType": "GROUND", "lat": "7.884488", "long": "98.391283", "AQILast.PM25.aqi": "81", "AQILast.PM25.value": "32.6" }, "geometry": { "type": "Point", "coordinates": [ 98.391283, 7.884488 ] } },
{ "type": "Feature", "properties": { "stationID": "102t", "nameTH": "สนามกีฬากลางจังหวัดมุกดาหาร", "nameEN": "Mukdahan Provincial Stadium", "areaTH": "ต.มุกดาหาร อ.เมือง, มุกดาหาร", "areaEN": "Mukdaman Subdistrict, Mueang District, Mukdahan", "stationType": "GROUND", "lat": "16.54257", "long": "104.7192", "AQILast.PM25.aqi": "209", "AQILast.PM25.value": "83.8" }, "geometry": { "type": "Point", "coordinates": [ 104.7192, 16.54257 ] } },
{ "type": "Feature", "properties": { "stationID": "63t", "nameTH": "สนามโรงพิธีช้างเผือก ", "nameEN": "White Elephant Park", "areaTH": "ต.สะเตง อ.เมือง, ยะลา", "areaEN": "Sateng, Mueang, Yala", "stationType": "GROUND", "lat": "6.546205", "long": "101.283137", "AQILast.PM25.aqi": "44", "AQILast.PM25.value": "22.7" }, "geometry": { "type": "Point", "coordinates": [ 101.283137, 6.546205 ] } },
{ "type": "Feature", "properties": { "stationID": "78t", "nameTH": "ศูนย์พัฒนาเด็กเล็กเทศบาลเมืองเบตง", "nameEN": "child development centers, Betong", "areaTH": "ต.เบตง อ.เบตง, ยะลา", "areaEN": "Betong, Yala", "stationType": "GROUND", "lat": "5.763873", "long": "101.067903", "AQILast.PM25.aqi": "18", "AQILast.PM25.value": "10.8" }, "geometry": { "type": "Point", "coordinates": [ 101.067903, 5.763873 ] } },
{ "type": "Feature", "properties": { "stationID": "109t", "nameTH": "สวนสาธารณะพญาแถน", "nameEN": "Phaya Thaen Public Park", "areaTH": "ต.ในเมือง,อ.เมือง, ยโสธร", "areaEN": "Mueang, Yasothon", "stationType": "GROUND", "lat": "15.783861", "long": "104.154639", "AQILast.PM25.aqi": "203", "AQILast.PM25.value": "77.5" }, "geometry": { "type": "Point", "coordinates": [ 104.154639, 15.783861 ] } },
{ "type": "Feature", "properties": { "stationID": "o30", "nameTH": "สำนักงานเทศบาลเมืองระนอง", "nameEN": "Ranong Municipal office", "areaTH": "ต.เขานิเวศน์  อ.เมือง, ระนอง", "areaEN": "Mueang District, Ranong", "stationType": "MOBILE", "lat": "9.961849", "long": "98.639341", "AQILast.PM25.aqi": "39", "AQILast.PM25.value": "20.3" }, "geometry": { "type": "Point", "coordinates": [ 98.639341, 9.961849 ] } },
{ "type": "Feature", "properties": { "stationID": "28t", "nameTH": "สำนักงานสาธารณสุขอำเภอปลวกแดง", "nameEN": "Pluakdaeng District Health Office", "areaTH": "ต.ปลวกแดง อ.ปลวกแดง, ระยอง", "areaEN": "Pluak Daeng, Pluak Daeng, Rayong", "stationType": "GROUND", "lat": "12.97378333", "long": "101.21285", "AQILast.PM25.aqi": "48", "AQILast.PM25.value": "24.2" }, "geometry": { "type": "Point", "coordinates": [ 101.21285, 12.97378333 ] } },
{ "type": "Feature", "properties": { "stationID": "29t", "nameTH": "โรงพยาบาลส่งเสริมสุขภาพตำบลมาบตาพุด ", "nameEN": "Health Promotion Hospital Maptaput", "areaTH": "ต.มาบตาพุด อ.เมือง, ระยอง", "areaEN": "Map Ta Phut, Meuang, Rayong", "stationType": "GROUND", "lat": "12.70865", "long": "101.1659833", "AQILast.PM25.aqi": "68", "AQILast.PM25.value": "29.3" }, "geometry": { "type": "Point", "coordinates": [ 101.1659833, 12.70865 ] } },
{ "type": "Feature", "properties": { "stationID": "31t", "nameTH": "ศูนย์วิจัยพืชไร่ระยอง ", "nameEN": "Field Crop Research Center, Rayong", "areaTH": "ต.ห้วยโป่ง อ.เมือง, ระยอง", "areaEN": "Huai Pong, Meuang, Rayong", "stationType": "GROUND", "lat": "12.73518333", "long": "101.13565", "AQILast.PM25.aqi": "43", "AQILast.PM25.value": "22.2" }, "geometry": { "type": "Point", "coordinates": [ 101.13565, 12.73518333 ] } },
{ "type": "Feature", "properties": { "stationID": "74t", "nameTH": "ศูนย์ราชการจังหวัดระยอง ", "nameEN": "Government Complex, Rayong", "areaTH": "ต.เนินพระ อ.เมือง, ระยอง", "areaEN": "Nern Pra, Meuang, Rayong", "stationType": "GROUND", "lat": "12.7066", "long": "101.18055", "AQILast.PM25.aqi": "40", "AQILast.PM25.value": "20.8" }, "geometry": { "type": "Point", "coordinates": [ 101.18055, 12.7066 ] } },
{ "type": "Feature", "properties": { "stationID": "o21", "nameTH": "สำนักงานเกษตรจังหวัดระยอง ", "nameEN": "Agricultural Office", "areaTH": "ต.ท่าประดู่ อ.เมือง, ระยอง", "areaEN": "Tha Pradu, Meuang, Rayong", "stationType": "GROUND", "lat": "12.67155", "long": "101.2758667", "AQILast.PM25.aqi": "34", "AQILast.PM25.value": "18.4" }, "geometry": { "type": "Point", "coordinates": [ 101.2758667, 12.67155 ] } },
{ "type": "Feature", "properties": { "stationID": "o38", "nameTH": "ค่ายสุรสิงหนาท", "nameEN": "Khai Surasinghanat", "areaTH": "ต.ตะพง อ.เมือง, ระยอง", "areaEN": "Taphong, Mueang, Rayong", "stationType": "MOBILE", "lat": "12.648576", "long": "101.32245", "AQILast.PM25.aqi": "32", "AQILast.PM25.value": "17.7" }, "geometry": { "type": "Point", "coordinates": [ 101.32245, 12.648576 ] } },
{ "type": "Feature", "properties": { "stationID": "26t", "nameTH": "สำนักงานสิ่งแวดล้อมภาคที่8", "nameEN": "Environmental Office 8 ratchaburi", "areaTH": "ต.หน้าเมือง อ.เมือง, ราชบุรี", "areaEN": "Na Mueang, Mueang, Ratchaburi", "stationType": "GROUND", "lat": "13.52344", "long": "99.814082", "AQILast.PM25.aqi": "86", "AQILast.PM25.value": "34.0" }, "geometry": { "type": "Point", "coordinates": [ 99.814082, 13.52344 ] } },
{ "type": "Feature", "properties": { "stationID": "o23", "nameTH": "สวนสมเด็จพระศรีนครินทร์ ร้อยเอ็ด", "nameEN": "Somdet Phra Srinagarindra Park, Roi Et", "areaTH": "ต.ในเมือง อ.เมือง, ร้อยเอ็ด", "areaEN": " Nai Mueang Subdistrict, Mueang District, Roi Et", "stationType": "MOBILE", "lat": "16.057537", "long": "103.651372", "AQILast.PM25.aqi": "187", "AQILast.PM25.value": "70.2" }, "geometry": { "type": "Point", "coordinates": [ 103.651372, 16.057537 ] } },
{ "type": "Feature", "properties": { "stationID": "99t", "nameTH": "สถานีอุตุนิยมวิทยาลพบุรี", "nameEN": " Meteorological Station Lopburi", "areaTH": "ต.ทะเลชุบศร อ.เมือง, ลพบุรี", "areaEN": " Talay Chupson Subdistrict, Mueang District, Lopburi", "stationType": "GROUND", "lat": "14.800032", "long": "100.628548", "AQILast.PM25.aqi": "133", "AQILast.PM25.value": "49.6" }, "geometry": { "type": "Point", "coordinates": [ 100.628548, 14.800032 ] } },
{ "type": "Feature", "properties": { "stationID": "37t", "nameTH": "สถานีอุตุนิยมวิทยาลำปาง", "nameEN": "Meteorological stations, Lampang", "areaTH": "ต.พระบาท อ.เมือง, ลำปาง", "areaEN": "Phra Bat, Meuang, Lampang", "stationType": "GROUND", "lat": "18.2783333", "long": "99.5064666", "AQILast.PM25.aqi": "49", "AQILast.PM25.value": "24.5" }, "geometry": { "type": "Point", "coordinates": [ 99.5064666, 18.2783333 ] } },
{ "type": "Feature", "properties": { "stationID": "38t", "nameTH": "โรงพยาบาลส่งเสริมสุขภาพตำบลบ้านสบป้าด ", "nameEN": "Health Promotion Hospital Sob Pad, Lampang", "areaTH": "ต.สบป้าด อ.แม่เมาะ, ลำปาง", "areaEN": "Sop Pat, Mae Mo, Lampang", "stationType": "GROUND", "lat": "18.2508166", "long": "99.76395", "AQILast.PM25.aqi": "24", "AQILast.PM25.value": "14.5" }, "geometry": { "type": "Point", "coordinates": [ 99.76395, 18.2508166 ] } },
{ "type": "Feature", "properties": { "stationID": "39t", "nameTH": "โรงพยาบาลส่งเสริมสุขภาพตำบลท่าสี ", "nameEN": "Health Promotion Hospital Banthasri", "areaTH": "ต.บ้านดง อ.แม่เมาะ, ลำปาง", "areaEN": "Ban Dong, Mae Mo, Lampang", "stationType": "GROUND", "lat": "18.4267833", "long": "99.7576333", "AQILast.PM25.aqi": "29", "AQILast.PM25.value": "16.4" }, "geometry": { "type": "Point", "coordinates": [ 99.7576333, 18.4267833 ] } },
{ "type": "Feature", "properties": { "stationID": "40t", "nameTH": "การประปาส่วนภูมิภาคแม่เมาะ", "nameEN": "Provincial Waterworks Authority Mae Moh", "areaTH": "ต.แม่เมาะ อ.แม่เมาะ, ลำปาง", "areaEN": "Mae Mo, Mae Mo, Lampang", "stationType": "GROUND", "lat": "18.2826333", "long": "99.6598166", "AQILast.PM25.aqi": "28", "AQILast.PM25.value": "16.0" }, "geometry": { "type": "Point", "coordinates": [ 99.6598166, 18.2826333 ] } },
{ "type": "Feature", "properties": { "stationID": "68t", "nameTH": "อุตุนิยมวิทยาลำพูน", "nameEN": "Meteorological Staions, Lamphun", "areaTH": "ต.บ้านกลาง อ.เมือง, ลำพูน", "areaEN": "ฺBan Klang, Mueang, Lamphun", "stationType": "GROUND", "lat": "18.567194", "long": "99.038639", "AQILast.PM25.aqi": "48", "AQILast.PM25.value": "24.3" }, "geometry": { "type": "Point", "coordinates": [ 99.038639, 18.567194 ] } },
{ "type": "Feature", "properties": { "stationID": "o72", "nameTH": "บริเวณที่ว่าการอำเภอลี้", "nameEN": " Li District Office", "areaTH": "ต.ลี้ อ.ลี้, ลำพูน", "areaEN": "Lee Subdistrict, Lee District, Lamphun", "stationType": "MOBILE", "lat": "17.802222", "long": "98.949722", "AQILast.PM25.aqi": "33", "AQILast.PM25.value": "18.0" }, "geometry": { "type": "Point", "coordinates": [ 98.949722, 17.802222 ] } },
{ "type": "Feature", "properties": { "stationID": "112t", "nameTH": "สถานีอุตุนิยมวิทยาศรีสะเกษ", "nameEN": "Sisaket Meteorological Center", "areaTH": "ต.หนองครก อ.เมือง, ศรีสะเกษ", "areaEN": "Nongkrog Subdistrict, Mueang District, Sisaket", "stationType": "MOBILE", "lat": "15.087087", "long": "104.326787", "AQILast.PM25.aqi": "179", "AQILast.PM25.value": "67.1" }, "geometry": { "type": "Point", "coordinates": [ 104.326787, 15.087087 ] } },
{ "type": "Feature", "properties": { "stationID": "90t", "nameTH": "สถานีอุตุนิยมวิทยาสกลนคร", "nameEN": "Meteorological stations, Sakon Nakhon", "areaTH": "ต.ธาตุนาเวง อ.เมือง, สกลนคร", "areaEN": "That Naweng, Mueang, Sakon Nakhon", "stationType": "GROUND", "lat": "17.15662", "long": "104.133216", "AQILast.PM25.aqi": "99", "AQILast.PM25.value": "37.2" }, "geometry": { "type": "Point", "coordinates": [ 104.133216, 17.15662 ] } },
{ "type": "Feature", "properties": { "stationID": "44t", "nameTH": "เทศบาลนครหาดใหญ่ ", "nameEN": "Hat Yai Municipality", "areaTH": "ต.หาดใหญ่ อ.หาดใหญ่, สงขลา", "areaEN": "Hat Yai, Songkhla", "stationType": "GROUND", "lat": "7.020434", "long": "100.484088", "AQILast.PM25.aqi": "44", "AQILast.PM25.value": "22.7" }, "geometry": { "type": "Point", "coordinates": [ 100.484088, 7.020434 ] } },
{ "type": "Feature", "properties": { "stationID": "o68", "nameTH": "โรงเรียนชุมชนบ้านปาดัง", "nameEN": "Ban Padang Community School", "areaTH": "ต.ปาดังเบซาร์ อ.สะเดา, สงขลา", "areaEN": "Padang Besar Subdistrict, Sadao District, Songkhla", "stationType": "MOBILE", "lat": "6.666143963588895", "long": "100.32734858721086", "AQILast.PM25.aqi": "32", "AQILast.PM25.value": "17.5" }, "geometry": { "type": "Point", "coordinates": [ 100.327348587210864, 6.666143963588895 ] } },
{ "type": "Feature", "properties": { "stationID": "80t", "nameTH": "ศาลากลาง จ.สตูล", "nameEN": "City Hall, Satun", "areaTH": "ต.พิมาน อ.เมือง, สตูล", "areaEN": "Phiman, Mueang, Satun", "stationType": "GROUND", "lat": "6.624747", "long": "100.066159", "AQILast.PM25.aqi": "62", "AQILast.PM25.value": "27.8" }, "geometry": { "type": "Point", "coordinates": [ 100.066159, 6.624747 ] } },
{ "type": "Feature", "properties": { "stationID": "08t", "nameTH": "ศูนย์ฟื้นฟูอาชีพคนพิการและทุพลภาพ ", "nameEN": "Prabadang Rehabiltation Center", "areaTH": "ต.ทรงคนอง อ.พระประแดง, สมุทรปราการ", "areaEN": "Song Kanong, Phra Pradaeng, Samut Prakan", "stationType": "GROUND", "lat": "13.664087", "long": "100.543436", "AQILast.PM25.aqi": "53", "AQILast.PM25.value": "25.6" }, "geometry": { "type": "Point", "coordinates": [ 100.543436, 13.664087 ] } },
{ "type": "Feature", "properties": { "stationID": "16t", "nameTH": "โรงไฟฟ้าพระนครใต้ ", "nameEN": "South Bangkok Power Plant", "areaTH": "ต.บางโปรง อ.เมือง, สมุทรปราการ", "areaEN": "Bang Prong, Meuang, Samut Prakan", "stationType": "GROUND", "lat": "13.618", "long": "100.5562", "AQILast.PM25.aqi": "38", "AQILast.PM25.value": "20.2" }, "geometry": { "type": "Point", "coordinates": [ 100.5562, 13.618 ] } },
{ "type": "Feature", "properties": { "stationID": "17t", "nameTH": "บ้านพักกรมอุตสาหกรรมพื้นฐานและการเหมืองแร่", "nameEN": "Residence for Dept. of Mineral Resources", "areaTH": "ต.ตลาด อ.พระประแดง, สมุทรปราการ", "areaEN": "Talat, Phra Pradaeng, Samut Prakan", "stationType": "GROUND", "lat": "13.652141", "long": "100.531805", "AQILast.PM25.aqi": "35", "AQILast.PM25.value": "18.9" }, "geometry": { "type": "Point", "coordinates": [ 100.531805, 13.652141 ] } },
{ "type": "Feature", "properties": { "stationID": "18t", "nameTH": "ศาลากลางจังหวัดสมุทรปราการ ", "nameEN": "City Hall, Samut Prakan", "areaTH": "ต.ปากน้ำ อ.เมือง, สมุทรปราการ", "areaEN": "Pak Nam, Meuang, Samut Prakan", "stationType": "GROUND", "lat": "13.599149", "long": "100.597345", "AQILast.PM25.aqi": "163", "AQILast.PM25.value": "61.1" }, "geometry": { "type": "Point", "coordinates": [ 100.597345, 13.599149 ] } },
{ "type": "Feature", "properties": { "stationID": "19t", "nameTH": "การเคหะชุมชนเมืองใหม่บางพลี ", "nameEN": "National Housing Authority Bangplee", "areaTH": "ต.บางเสาธง อ.บางเสาธง, สมุทรปราการ", "areaEN": "Bang Sao Thong, Bang Sao Thong, Samut Prakan ", "stationType": "GROUND", "lat": "13.5705", "long": "100.7862867", "AQILast.PM25.aqi": "55", "AQILast.PM25.value": "26.0" }, "geometry": { "type": "Point", "coordinates": [ 100.7862867, 13.5705 ] } },
{ "type": "Feature", "properties": { "stationID": "84t", "nameTH": "สำนักงานสาธารณสุขจังหวัดสมุทรสงคราม", "nameEN": "Samut Songkhram Health Office", "areaTH": " ต.ลาดใหญ่ อ.เมือง, สมุทรสงคราม", "areaEN": "Mueang, Samut Songkhram", "stationType": "GROUND", "lat": "13.428581", "long": "100.024664", "AQILast.PM25.aqi": "31", "AQILast.PM25.value": "17.0" }, "geometry": { "type": "Point", "coordinates": [ 100.024664, 13.428581 ] } },
{ "type": "Feature", "properties": { "stationID": "14t", "nameTH": "แขวงการทางสมุทรสาคร ", "nameEN": "Highway District", "areaTH": "ต.อ้อมน้อย อ.กระทุ่มแบน, สมุทรสาคร", "areaEN": "Om Noi, Krathum Baen, Samut Sakhon", "stationType": "GROUND", "lat": "13.7054879", "long": "100.315622", "AQILast.PM25.aqi": "58", "AQILast.PM25.value": "26.8" }, "geometry": { "type": "Point", "coordinates": [ 100.315622, 13.7054879 ] } },
{ "type": "Feature", "properties": { "stationID": "27t", "nameTH": "โรงเรียนสมุทรสาครวิทยาลัย", "nameEN": "Samut Sakhon Wittayalai School", "areaTH": "ต.มหาชัย อ.เมือง, สมุทรสาคร", "areaEN": "Maha Chai, Mueang, Samut Sakhon", "stationType": "GROUND", "lat": "13.5502631", "long": "100.2647676", "AQILast.PM25.aqi": "42", "AQILast.PM25.value": "21.9" }, "geometry": { "type": "Point", "coordinates": [ 100.2647676, 13.5502631 ] } },
{ "type": "Feature", "properties": { "stationID": "24t", "nameTH": "สถานีตำรวจภูธรตำบลหน้าพระลาน ", "nameEN": "Na Phralan Police Station ", "areaTH": "ต.หน้าพระลาน อ.เฉลิมพระเกียรติ, สระบุรี", "areaEN": "Na Phra Lan, Chaloem Phra Kiat, Saraburi", "stationType": "GROUND", "lat": "14.685833", "long": "100.871996", "AQILast.PM25.aqi": "216", "AQILast.PM25.value": "90.4" }, "geometry": { "type": "Point", "coordinates": [ 100.871996, 14.685833 ] } },
{ "type": "Feature", "properties": { "stationID": "25t", "nameTH": "สถานีดับเพลิงพระลักษณ์", "nameEN": "Khao Noi Fire Station", "areaTH": "ต.ปากเพรียว อ.เมือง, สระบุรี", "areaEN": "Pak Phriao, Mueang Saraburi, Saraburi", "stationType": "GROUND", "lat": "14.526343", "long": "100.926047", "AQILast.PM25.aqi": "95", "AQILast.PM25.value": "36.2" }, "geometry": { "type": "Point", "coordinates": [ 100.926047, 14.526343 ] } },
{ "type": "Feature", "properties": { "stationID": "71t", "nameTH": "สวนกาญจนาภิเษก ร.9 (ฝั่งสวนหิน)", "nameEN": "Kanjanapisek Park", "areaTH": "ต.อรัญประเทศ อ.อรัญประเทศ, สระแก้ว", "areaEN": "Aranyaprathet, Aranyaprathet, Sa Kaeo", "stationType": "GROUND", "lat": "13.691047", "long": "102.510442", "AQILast.PM25.aqi": "98", "AQILast.PM25.value": "37.0" }, "geometry": { "type": "Point", "coordinates": [ 102.510442, 13.691047 ] } },
{ "type": "Feature", "properties": { "stationID": "104t", "nameTH": "โรงเรียนสิงห์บุรี", "nameEN": "SINGBURI SCHOOL", "areaTH": "ต.บางมัญ อ.เมือง, สิงห์บุรี", "areaEN": " Bang Man Subdistrict, Mueang District, Sing Buri", "stationType": "GROUND", "lat": "14.8933874", "long": "100.4130773", "AQILast.PM25.aqi": "105", "AQILast.PM25.value": "39.2" }, "geometry": { "type": "Point", "coordinates": [ 100.4130773, 14.8933874 ] } },
{ "type": "Feature", "properties": { "stationID": "85t", "nameTH": "สนามกีฬากลางจังหวัดสุพรรณบุรี", "nameEN": "Suphan Buri Provincial Central Stadium", "areaTH": "ต.ดอนกำยาน อ.เมือง, สุพรรณบุรี", "areaEN": "Don Kamyan, Mueang, Suphun Buri", "stationType": "GROUND", "lat": "14.476214", "long": "100.086095", "AQILast.PM25.aqi": "70", "AQILast.PM25.value": "30.0" }, "geometry": { "type": "Point", "coordinates": [ 100.086095, 14.476214 ] } },
{ "type": "Feature", "properties": { "stationID": "42t", "nameTH": "สำนักงานสิ่งแวดล้อมภาคที่ 14", "nameEN": "Environment Agency Section 14, Surat Thani", "areaTH": "ต.มะขามเตี้ย อ.เมือง, สุราษฎร์ธานี", "areaEN": "Makham Tia, Mueang, Surat Thani", "stationType": "GROUND", "lat": "9.126017", "long": "99.325145", "AQILast.PM25.aqi": "54", "AQILast.PM25.value": "25.8" }, "geometry": { "type": "Point", "coordinates": [ 99.325145, 9.126017 ] } },
{ "type": "Feature", "properties": { "stationID": "111t", "nameTH": "สถานีอุตุนิยมวิทยาสุรินทร์", "nameEN": "Surin Meteorological Center", "areaTH": "ต.นอกเมือง, อ.เมือง, จ.สุรินทร์", "areaEN": "Nok Mueang, Mueang, Surin", "stationType": "GROUND", "lat": "14.8762222", "long": "103.4965833", "AQILast.PM25.aqi": "197", "AQILast.PM25.value": "73.7" }, "geometry": { "type": "Point", "coordinates": [ 103.4965833, 14.8762222 ] } },
{ "type": "Feature", "properties": { "stationID": "96t", "nameTH": "สวนสาธารณะ ชุมชนเลอไทย", "nameEN": "Le Thai Community Park", "areaTH": "ต.ธานี อ.เมือง, สุโขทัย", "areaEN": "Tambon Thani, Amphoe Mueang, Sukhothai", "stationType": "GROUND", "lat": "17.006059", "long": "99.81927", "AQILast.PM25.aqi": "68", "AQILast.PM25.value": "29.3" }, "geometry": { "type": "Point", "coordinates": [ 99.81927, 17.006059 ] } },
{ "type": "Feature", "properties": { "stationID": "82t", "nameTH": "สวนสาธารณะหนองถิ่น", "nameEN": "Nong Thin Public Park, Nong Khai", "areaTH": " ต.มีชัย อ.เมือง, หนองคาย", "areaEN": "Meechai, Meuang, Nong Khai", "stationType": "GROUND", "lat": "17.87748", "long": "102.728925", "AQILast.PM25.aqi": "104", "AQILast.PM25.value": "38.6" }, "geometry": { "type": "Point", "coordinates": [ 102.728925, 17.87748 ] } },
{ "type": "Feature", "properties": { "stationID": "o24", "nameTH": "องค์การริหารส่วนจังหวัดหนองบัวลำภู", "nameEN": "Nong Bua Lamphu Provincial Administrative Organization ", "areaTH": "ต.หนองบัว อ.เมือง, หนองบัวลำภู", "areaEN": "Nong Bua Subdistrict, Mueang District, Nong Bua Lamphu", "stationType": "MOBILE", "lat": "17.193824", "long": "102.4585009", "AQILast.PM25.aqi": "124", "AQILast.PM25.value": "46.2" }, "geometry": { "type": "Point", "coordinates": [ 102.4585009, 17.193824 ] } },
{ "type": "Feature", "properties": { "stationID": "110t", "nameTH": "สำนักงานเทศบาลเมืองอำนาจเจริญ", "nameEN": "Amnat Charoen Municipality", "areaTH": "ต.บุ่ง, อ.เมือง, จ.อำนาจเจริญ", "areaEN": "Bung, Mueang, Amnat Charoen", "stationType": "GROUND", "lat": "15.8758", "long": "104.6223", "AQILast.PM25.aqi": "180", "AQILast.PM25.value": "67.4" }, "geometry": { "type": "Point", "coordinates": [ 104.6223, 15.8758 ] } },
{ "type": "Feature", "properties": { "stationID": "91t", "nameTH": "สวนสาธารณะหนองประจักษ์ อุดรธานี", "nameEN": "Nong Prajak Public Park, Udon Thani", "areaTH": "ต.หมากแข้ง อ.เมือง, อุดรธานี", "areaEN": "Mak Khaeng, Mueang, Udon Thani", "stationType": "GROUND", "lat": "17.414174", "long": "102.780926", "AQILast.PM25.aqi": "60", "AQILast.PM25.value": "27.4" }, "geometry": { "type": "Point", "coordinates": [ 102.780926, 17.414174 ] } },
{ "type": "Feature", "properties": { "stationID": "92t", "nameTH": "สวนมหามงคลเฉลิมพระชนมพรรษา 6 รอบ 5 ธันวาคม 2552 อุตรดิตถ์", "nameEN": "72nd Anniversary King Bhumibol Public Park, Uttaradit", "areaTH": "ต.ท่าอิฐ อ.เมือง, อุตรดิตถ์", "areaEN": "Tha It, Mueang, Uttaradit", "stationType": "GROUND", "lat": "17.631352", "long": "100.09896", "AQILast.PM25.aqi": "37", "AQILast.PM25.value": "19.5" }, "geometry": { "type": "Point", "coordinates": [ 100.09896, 17.631352 ] } },
{ "type": "Feature", "properties": { "stationID": "98t", "nameTH": "สถานีสวนเฉลิมพระเกียรติพระบาทสมเด็จพระเจ้าอยู่หัว เฉลิมพระชนมพรรษา 80 พรรษา", "nameEN": "Chaloem Phrakiat Park Station 80th birthday celebration", "areaTH": "ต.อุทัยใหม่ อ.เมือง, อุทัยธานี", "areaEN": "Mueang, Uthai Thani", "stationType": "GROUND", "lat": "15.373638", "long": "100.038725", "AQILast.PM25.aqi": "147", "AQILast.PM25.value": "55.0" }, "geometry": { "type": "Point", "coordinates": [ 100.038725, 15.373638 ] } },
{ "type": "Feature", "properties": { "stationID": "83t", "nameTH": "ศูนย์แสดงและจำหน่ายสินค้า OTOP จังหวัดอุบลราชธานี", "nameEN": "OTOP Center, Ubon Ratchathani", "areaTH": "ต.ในเมือง อ.เมือง, อุบลราชธานี", "areaEN": "Mueang, Ubon Ratchathani", "stationType": "GROUND", "lat": "15.245413", "long": "104.846219", "AQILast.PM25.aqi": "219", "AQILast.PM25.value": "93.8" }, "geometry": { "type": "Point", "coordinates": [ 104.846219, 15.245413 ] } },
{ "type": "Feature", "properties": { "stationID": "o66", "nameTH": " สวนน้ำเฉลิมพระเกียรติ ", "nameEN": "Chaloem Phra Kiat Water Park", "areaTH": "ต.ย่านซื่อ อ.เมือง, อ่างทอง", "areaEN": "Yan Sue Subdistrict, Mueang Ang Thong District Ang Thong Province", "stationType": "MOBILE", "lat": "14.606306", "long": "100.453589", "AQILast.PM25.aqi": "142", "AQILast.PM25.value": "52.9" }, "geometry": { "type": "Point", "coordinates": [ 100.453589, 14.606306 ] } },
{ "type": "Feature", "properties": { "stationID": "57t", "nameTH": "สำนักงานทรัพยากรธรรมชาติและสิ่งแวดล้อมจังหวัดเชียงราย", "nameEN": "Natural Resources and Environment Office, Chiangrai", "areaTH": "ต.เวียง อ.เมือง, เชียงราย", "areaEN": "Wiang, Meuang, Chiang Rai", "stationType": "GROUND", "lat": "19.909217", "long": "99.823467", "AQILast.PM25.aqi": "30", "AQILast.PM25.value": "16.9" }, "geometry": { "type": "Point", "coordinates": [ 99.823467, 19.909217 ] } },
{ "type": "Feature", "properties": { "stationID": "73t", "nameTH": "สำนักงานสาธารณสุขแม่สาย", "nameEN": "Maesai Health Office", "areaTH": "ต.เวียงพางคำ อ.แม่สาย, เชียงราย", "areaEN": "Wiang Phang Kham, Mae Sai, Chiang Rai", "stationType": "GROUND", "lat": "20.427325", "long": "99.883842", "AQILast.PM25.aqi": "50", "AQILast.PM25.value": "25.0" }, "geometry": { "type": "Point", "coordinates": [ 99.883842, 20.427325 ] } },
{ "type": "Feature", "properties": { "stationID": "o69", "nameTH": "ศูนย์ป้องกันและบรรเทาสาธารณภัยเทศบาลตำบลเวียง", "nameEN": "Wiang Subdistrict Disaster Prevention and Mitigation Center", "areaTH": "ต.เวียง อ.เชียงของ, เชียงราย", "areaEN": "Wiang Subdistrict, Chiang Khong District, Chiang Rai", "stationType": "MOBILE", "lat": "20.2575", "long": "100.4025", "AQILast.PM25.aqi": "41", "AQILast.PM25.value": "21.4" }, "geometry": { "type": "Point", "coordinates": [ 100.4025, 20.2575 ] } },
{ "type": "Feature", "properties": { "stationID": "35t", "nameTH": "ศูนย์ราชการจังหวัดเชียงใหม่ ", "nameEN": "City Hall, Chiangmai", "areaTH": "ต.ช้างเผือก อ.เมือง, เชียงใหม่", "areaEN": "Chang Phueak, Meuang, Chiang Mai", "stationType": "GROUND", "lat": "18.840732", "long": "98.96978", "AQILast.PM25.aqi": "30", "AQILast.PM25.value": "16.6" }, "geometry": { "type": "Point", "coordinates": [ 98.96978, 18.840732 ] } },
{ "type": "Feature", "properties": { "stationID": "36t", "nameTH": "โรงเรียนยุพราชวิทยาลัย ", "nameEN": "Yupparaj Wittayalai School", "areaTH": "ต.ศรีภูมิ อ.เมือง, เชียงใหม่", "areaEN": "Si Phum, Meuang, Chiang Mai", "stationType": "GROUND", "lat": "18.7909333", "long": "98.99", "AQILast.PM25.aqi": "29", "AQILast.PM25.value": "16.4" }, "geometry": { "type": "Point", "coordinates": [ 98.99, 18.7909333 ] } },
{ "type": "Feature", "properties": { "stationID": "o27", "nameTH": "สำนักงานเทศบาลตำบลเมืองนะ", "nameEN": "Mueang Na Subdistrict Municipality Office", "areaTH": "ต.เมืองนะ อ.เชียงดาว, เชียงใหม่", "areaEN": "Muangna Subdistrict, Chiang Dao District, Chiang Mai", "stationType": "MOBILE", "lat": "19.593889", "long": "98.961667", "AQILast.PM25.aqi": "16", "AQILast.PM25.value": "9.8" }, "geometry": { "type": "Point", "coordinates": [ 98.961667, 19.593889 ] } },
{ "type": "Feature", "properties": { "stationID": "o28", "nameTH": "โรงพยาบาลเทพรัตนเวชชานุกูล แม่แจ่ม", "nameEN": "Debaratana Vejjanukul Hospital, Mae Chaem", "areaTH": "ต.ช่างเคิ่ง อ.แม่แจ่ม, เชียงใหม่", "areaEN": "Chang Khoeng,Mae Chaem,Chiang Mai", "stationType": "MOBILE", "lat": "18.498333", "long": "98.379444", "AQILast.PM25.aqi": "13", "AQILast.PM25.value": "7.8" }, "geometry": { "type": "Point", "coordinates": [ 98.379444, 18.498333 ] } },
{ "type": "Feature", "properties": { "stationID": "o70", "nameTH": "พระตำหนักภูพิงคราชนิเวศน์ ", "nameEN": "Wiang Subdistrict Disaster Prevention and Mitigation Center", "areaTH": "ต.สุเทพ  อ.เมือง, จ.เชียงใหม่", "areaEN": "Suthep Subdistrict, Mueang District, Chiang Mai Province", "stationType": "MOBILE", "lat": "18.804894", "long": "98.900698", "AQILast.PM25.aqi": "12", "AQILast.PM25.value": "7.1" }, "geometry": { "type": "Point", "coordinates": [ 98.900698, 18.804894 ] } },
{ "type": "Feature", "properties": { "stationID": "o71", "nameTH": "การไฟฟ้าส่วนภูมิภาค สาขา อำเภอฮอด", "nameEN": "Provincial Electricity Authority, Hot District Branch", "areaTH": "ต.หางดง อ.ฮอด, จ.เชียงใหม่", "areaEN": "Hang Dong, Hot District, Chiang Mai", "stationType": "MOBILE", "lat": "18.172495", "long": "98.61069", "AQILast.PM25.aqi": "21", "AQILast.PM25.value": "12.7" }, "geometry": { "type": "Point", "coordinates": [ 98.61069, 18.172495 ] } },
{ "type": "Feature", "properties": { "stationID": "o22", "nameTH": "สำนักงานเทศบาลเมืองเพชรบุรี ", "nameEN": "Phetchaburi Municipality", "areaTH": "ต.คลองกระแชง อ.เมือง, เพชรบุรี", "areaEN": "Tambon Khlong Kra Saeng, Amphoe Mueang Phetchaburi, Chang Wat Phetchaburi", "stationType": "MOBILE", "lat": "13.11249031", "long": "99.9461325", "AQILast.PM25.aqi": "49", "AQILast.PM25.value": "24.6" }, "geometry": { "type": "Point", "coordinates": [ 99.9461325, 13.11249031 ] } },
{ "type": "Feature", "properties": { "stationID": "97t", "nameTH": "สวนเพชบุระ", "nameEN": "Phetbura garden", "areaTH": "ต.ในเมือง อ.เมือง, เพชรบูรณ์", "areaEN": " Nai Mueang Subdistrict, Mueang District, Phetchabun", "stationType": "GROUND", "lat": "16.418417", "long": "101.156556", "AQILast.PM25.aqi": "55", "AQILast.PM25.value": "26.0" }, "geometry": { "type": "Point", "coordinates": [ 101.156556, 16.418417 ] } },
{ "type": "Feature", "properties": { "stationID": "72t", "nameTH": "สวนสาธารณะเฉลิมพระเกียรติ 60 พรรษามหาราชินี จังหวัดเลย", "nameEN": "60th Anniversary Queen Sirikit Public Park, Loei", "areaTH": "ต.กุดป่อง อ.เมือง, เลย", "areaEN": "Kut Pong Subdistrict, Mueang District, Loei", "stationType": "GROUND", "lat": "17.48462", "long": "101.732734", "AQILast.PM25.aqi": "26", "AQILast.PM25.value": "15.3" }, "geometry": { "type": "Point", "coordinates": [ 101.732734, 17.48462 ] } },
{ "type": "Feature", "properties": { "stationID": "69t", "nameTH": "อุตุนิยมวิทยาจังหวัดแพร่", "nameEN": "Meteorology Center, Phrae", "areaTH": "ต.นาจักร อ.เมือง, แพร่", "areaEN": "Na Chak, Meuang, Phrae", "stationType": "GROUND", "lat": "18.1283666", "long": "100.1624333", "AQILast.PM25.aqi": "77", "AQILast.PM25.value": "31.8" }, "geometry": { "type": "Point", "coordinates": [ 100.1624333, 18.1283666 ] } },
{ "type": "Feature", "properties": { "stationID": "58t", "nameTH": "สำนักงานทรัพยากรธรรมชาติและสิ่งแวดล้อมจังหวัดแม่ฮ่องสอน", "nameEN": "Natural Resources and Environment Office, Mae Hongson", "areaTH": "ต.จองคำ อ.เมือง, แม่ฮ่องสอน", "areaEN": "Chong Kham, Meuang, Mae Hong Son", "stationType": "GROUND", "lat": "19.30455", "long": "97.97165", "AQILast.PM25.aqi": "19", "AQILast.PM25.value": "11.4" }, "geometry": { "type": "Point", "coordinates": [ 97.97165, 19.30455 ] } },
{ "type": "Feature", "properties": { "stationID": "o29", "nameTH": "สำนักงานสาธารณสุขอำเภอแม่สะเรียง", "nameEN": " Mae Sariang District Public Health Office", "areaTH": "ต.แม่คง อ.แม่สะเรียง, แม่ฮ่องสอน", "areaEN": "Mae Khong Subdistrict, Sariang District, Mae Hong Son", "stationType": "MOBILE", "lat": "18.163056", "long": "97.917778", "AQILast.PM25.aqi": "20", "AQILast.PM25.value": "11.7" }, "geometry": { "type": "Point", "coordinates": [ 97.917778, 18.163056 ] } },
{ "type": "Feature", "properties": { "stationID": "o73", "nameTH": "ท่าอากาศยานปาย", "nameEN": "Pai Airport", "areaTH": "ต.เวียงใต้ อ.ปาย, แม่ฮ่องสอน", "areaEN": "Wiang Tai, Pai, Mae Hong Son", "stationType": "MOBILE", "lat": "19.369637", "long": "98.43596", "AQILast.PM25.aqi": "24", "AQILast.PM25.value": "14.6" }, "geometry": { "type": "Point", "coordinates": [ 98.43596, 19.369637 ] } }
]
}
